{
"type": "FeatureCollection",
"name": "grid_BKK",
"crs": { "type": "name", "properties": { "name": "urn:ogc:def:crs:OGC:1.3:CRS84" } },
"features": [
{ "type": "Feature", "properties": { "region_id": "BKK_14.05000_100.30000", "city": "BKK", "lat_center": 14.05, "lon_center": 100.3, "dlat": 0.1, "dlon": 0.1 }, "geometry": { "type": "Polygon", "coordinates": [ [ [ 100.35, 14.0 ], [ 100.35, 14.1 ], [ 100.25, 14.1 ], [ 100.25, 14.0 ], [ 100.35, 14.0 ] ] ] } },
{ "type": "Feature", "properties": { "region_id": "BKK_14.05000_100.40000", "city": "BKK", "lat_center": 14.05, "lon_center": 100.4, "dlat": 0.1, "dlon": 0.1 }, "geometry": { "type": "Polygon", "coordinates": [ [ [ 100.45, 14.0 ], [ 100.45, 14.1 ], [ 100.35, 14.1 ], [ 100.35, 14.0 ], [ 100.45, 14.0 ] ] ] } },
{ "type": "Feature", "properties": { "region_id": "BKK_14.05000_100.50000", "city": "BKK", "lat_center": 14.05, "lon_center": 100.5, "dlat": 0.1, "dlon": 0.1 }, "geometry": { "type": "Polygon", "coordinates": [ [ [ 100.55, 14.0 ], [ 100.55, 14.1 ], [ 100.45, 14.1 ], [ 100.45, 14.0 ], [ 100.55, 14.0 ] ] ] } },
{ "type": "Feature", "properties": { "region_id": "BKK_14.05000_100.60000", "city": "BKK", "lat_center": 14.05, "lon_center": 100.6, "dlat": 0.1, "dlon": 0.1 }, "geometry": { "type": "Polygon", "coordinates": [ [ [ 100.65, 14.0 ], [ 100.65, 14.1 ], [ 100.55, 14.1 ], [ 100.55, 14.0 ], [ 100.65, 14.0 ] ] ] } },
{ "type": "Feature", "properties": { "region_id": "BKK_14.05000_100.70000", "city": "BKK", "lat_center": 14.05, "lon_center": 100.7, "dlat": 0.1, "dlon": 0.1 }, "geometry": { "type": "Polygon", "coordinates": [ [ [ 100.75, 14.0 ], [ 100.75, 14.1 ], [ 100.65, 14.1 ], [ 100.65, 14.0 ], [ 100.75, 14.0 ] ] ] } },
{ "type": "Feature", "properties": { "region_id": "BKK_14.05000_100.80000", "city": "BKK", "lat_center": 14.05, "lon_center": 100.8, "dlat": 0.1, "dlon": 0.1 }, "geometry": { "type": "Polygon", "coordinates": [ [ [ 100.85, 14.0 ], [ 100.85, 14.1 ], [ 100.75, 14.1 ], [ 100.75, 14.0 ], [ 100.85, 14.0 ] ] ] } },
{ "type": "Feature", "properties": { "region_id": "BKK_14.05000_100.90000", "city": "BKK", "lat_center": 14.05, "lon_center": 100.9, "dlat": 0.1, "dlon": 0.1 }, "geometry": { "type": "Polygon", "coordinates": [ [ [ 100.95, 14.0 ], [ 100.95, 14.1 ], [ 100.85, 14.1 ], [ 100.85, 14.0 ], [ 100.95, 14.0 ] ] ] } },
{ "type": "Feature", "properties": { "region_id": "BKK_13.95000_100.30000", "city": "BKK", "lat_center": 13.95, "lon_center": 100.3, "dlat": 0.1, "dlon": 0.1 }, "geometry": { "type": "Polygon", "coordinates": [ [ [ 100.35, 13.9 ], [ 100.35, 14.0 ], [ 100.25, 14.0 ], [ 100.25, 13.9 ], [ 100.35, 13.9 ] ] ] } },
{ "type": "Feature", "properties": { "region_id": "BKK_13.95000_100.40000", "city": "BKK", "lat_center": 13.95, "lon_center": 100.4, "dlat": 0.1, "dlon": 0.1 }, "geometry": { "type": "Polygon", "coordinates": [ [ [ 100.45, 13.9 ], [ 100.45, 14.0 ], [ 100.35, 14.0 ], [ 100.35, 13.9 ], [ 100.45, 13.9 ] ] ] } },
{ "type": "Feature", "properties": { "region_id": "BKK_13.95000_100.50000", "city": "BKK", "lat_center": 13.95, "lon_center": 100.5, "dlat": 0.1, "dlon": 0.1 }, "geometry": { "type": "Polygon", "coordinates": [ [ [ 100.55, 13.9 ], [ 100.55, 14.0 ], [ 100.45, 14.0 ], [ 100.45, 13.9 ], [ 100.55, 13.9 ] ] ] } },
{ "type": "Feature", "properties": { "region_id": "BKK_13.95000_100.60000", "city": "BKK", "lat_center": 13.95, "lon_center": 100.6, "dlat": 0.1, "dlon": 0.1 }, "geometry": { "type": "Polygon", "coordinates": [ [ [ 100.65, 13.9 ], [ 100.65, 14.0 ], [ 100.55, 14.0 ], [ 100.55, 13.9 ], [ 100.65, 13.9 ] ] ] } },
{ "type": "Feature", "properties": { "region_id": "BKK_13.95000_100.70000", "city": "BKK", "lat_center": 13.95, "lon_center": 100.7, "dlat": 0.1, "dlon": 0.1 }, "geometry": { "type": "Polygon", "coordinates": [ [ [ 100.75, 13.9 ], [ 100.75, 14.0 ], [ 100.65, 14.0 ], [ 100.65, 13.9 ], [ 100.75, 13.9 ] ] ] } },
{ "type": "Feature", "properties": { "region_id": "BKK_13.95000_100.80000", "city": "BKK", "lat_center": 13.95, "lon_center": 100.8, "dlat": 0.1, "dlon": 0.1 }, "geometry": { "type": "Polygon", "coordinates": [ [ [ 100.85, 13.9 ], [ 100.85, 14.0 ], [ 100.75, 14.0 ], [ 100.75, 13.9 ], [ 100.85, 13.9 ] ] ] } },
{ "type": "Feature", "properties": { "region_id": "BKK_13.95000_100.90000", "city": "BKK", "lat_center": 13.95, "lon_center": 100.9, "dlat": 0.1, "dlon": 0.1 }, "geometry": { "type": "Polygon", "coordinates": [ [ [ 100.95, 13.9 ], [ 100.95, 14.0 ], [ 100.85, 14.0 ], [ 100.85, 13.9 ], [ 100.95, 13.9 ] ] ] } },
{ "type": "Feature", "properties": { "region_id": "BKK_13.85000_100.30000", "city": "BKK", "lat_center": 13.85, "lon_center": 100.3, "dlat": 0.1, "dlon": 0.1 }, "geometry": { "type": "Polygon", "coordinates": [ [ [ 100.35, 13.8 ], [ 100.35, 13.9 ], [ 100.25, 13.9 ], [ 100.25, 13.8 ], [ 100.35, 13.8 ] ] ] } },
{ "type": "Feature", "properties": { "region_id": "BKK_13.85000_100.40000", "city": "BKK", "lat_center": 13.85, "lon_center": 100.4, "dlat": 0.1, "dlon": 0.1 }, "geometry": { "type": "Polygon", "coordinates": [ [ [ 100.45, 13.8 ], [ 100.45, 13.9 ], [ 100.35, 13.9 ], [ 100.35, 13.8 ], [ 100.45, 13.8 ] ] ] } },
{ "type": "Feature", "properties": { "region_id": "BKK_13.85000_100.50000", "city": "BKK", "lat_center": 13.85, "lon_center": 100.5, "dlat": 0.1, "dlon": 0.1 }, "geometry": { "type": "Polygon", "coordinates": [ [ [ 100.55, 13.8 ], [ 100.55, 13.9 ], [ 100.45, 13.9 ], [ 100.45, 13.8 ], [ 100.55, 13.8 ] ] ] } },
{ "type": "Feature", "properties": { "region_id": "BKK_13.85000_100.60000", "city": "BKK", "lat_center": 13.85, "lon_center": 100.6, "dlat": 0.1, "dlon": 0.1 }, "geometry": { "type": "Polygon", "coordinates": [ [ [ 100.65, 13.8 ], [ 100.65, 13.9 ], [ 100.55, 13.9 ], [ 100.55, 13.8 ], [ 100.65, 13.8 ] ] ] } },
{ "type": "Feature", "properties": { "region_id": "BKK_13.85000_100.70000", "city": "BKK", "lat_center": 13.85, "lon_center": 100.7, "dlat": 0.1, "dlon": 0.1 }, "geometry": { "type": "Polygon", "coordinates": [ [ [ 100.75, 13.8 ], [ 100.75, 13.9 ], [ 100.65, 13.9 ], [ 100.65, 13.8 ], [ 100.75, 13.8 ] ] ] } },
{ "type": "Feature", "properties": { "region_id": "BKK_13.85000_100.80000", "city": "BKK", "lat_center": 13.85, "lon_center": 100.8, "dlat": 0.1, "dlon": 0.1 }, "geometry": { "type": "Polygon", "coordinates": [ [ [ 100.85, 13.8 ], [ 100.85, 13.9 ], [ 100.75, 13.9 ], [ 100.75, 13.8 ], [ 100.85, 13.8 ] ] ] } },
{ "type": "Feature", "properties": { "region_id": "BKK_13.85000_100.90000", "city": "BKK", "lat_center": 13.85, "lon_center": 100.9, "dlat": 0.1, "dlon": 0.1 }, "geometry": { "type": "Polygon", "coordinates": [ [ [ 100.95, 13.8 ], [ 100.95, 13.9 ], [ 100.85, 13.9 ], [ 100.85, 13.8 ], [ 100.95, 13.8 ] ] ] } },
{ "type": "Feature", "properties": { "region_id": "BKK_13.75000_100.30000", "city": "BKK", "lat_center": 13.75, "lon_center": 100.3, "dlat": 0.1, "dlon": 0.1 }, "geometry": { "type": "Polygon", "coordinates": [ [ [ 100.35, 13.7 ], [ 100.35, 13.8 ], [ 100.25, 13.8 ], [ 100.25, 13.7 ], [ 100.35, 13.7 ] ] ] } },
{ "type": "Feature", "properties": { "region_id": "BKK_13.75000_100.40000", "city": "BKK", "lat_center": 13.75, "lon_center": 100.4, "dlat": 0.1, "dlon": 0.1 }, "geometry": { "type": "Polygon", "coordinates": [ [ [ 100.45, 13.7 ], [ 100.45, 13.8 ], [ 100.35, 13.8 ], [ 100.35, 13.7 ], [ 100.45, 13.7 ] ] ] } },
{ "type": "Feature", "properties": { "region_id": "BKK_13.75000_100.50000", "city": "BKK", "lat_center": 13.75, "lon_center": 100.5, "dlat": 0.1, "dlon": 0.1 }, "geometry": { "type": "Polygon", "coordinates": [ [ [ 100.55, 13.7 ], [ 100.55, 13.8 ], [ 100.45, 13.8 ], [ 100.45, 13.7 ], [ 100.55, 13.7 ] ] ] } },
{ "type": "Feature", "properties": { "region_id": "BKK_13.75000_100.60000", "city": "BKK", "lat_center": 13.75, "lon_center": 100.6, "dlat": 0.1, "dlon": 0.1 }, "geometry": { "type": "Polygon", "coordinates": [ [ [ 100.65, 13.7 ], [ 100.65, 13.8 ], [ 100.55, 13.8 ], [ 100.55, 13.7 ], [ 100.65, 13.7 ] ] ] } },
{ "type": "Feature", "properties": { "region_id": "BKK_13.75000_100.70000", "city": "BKK", "lat_center": 13.75, "lon_center": 100.7, "dlat": 0.1, "dlon": 0.1 }, "geometry": { "type": "Polygon", "coordinates": [ [ [ 100.75, 13.7 ], [ 100.75, 13.8 ], [ 100.65, 13.8 ], [ 100.65, 13.7 ], [ 100.75, 13.7 ] ] ] } },
{ "type": "Feature", "properties": { "region_id": "BKK_13.75000_100.80000", "city": "BKK", "lat_center": 13.75, "lon_center": 100.8, "dlat": 0.1, "dlon": 0.1 }, "geometry": { "type": "Polygon", "coordinates": [ [ [ 100.85, 13.7 ], [ 100.85, 13.8 ], [ 100.75, 13.8 ], [ 100.75, 13.7 ], [ 100.85, 13.7 ] ] ] } },
{ "type": "Feature", "properties": { "region_id": "BKK_13.75000_100.90000", "city": "BKK", "lat_center": 13.75, "lon_center": 100.9, "dlat": 0.1, "dlon": 0.1 }, "geometry": { "type": "Polygon", "coordinates": [ [ [ 100.95, 13.7 ], [ 100.95, 13.8 ], [ 100.85, 13.8 ], [ 100.85, 13.7 ], [ 100.95, 13.7 ] ] ] } },
{ "type": "Feature", "properties": { "region_id": "BKK_13.65000_100.30000", "city": "BKK", "lat_center": 13.65, "lon_center": 100.3, "dlat": 0.1, "dlon": 0.1 }, "geometry": { "type": "Polygon", "coordinates": [ [ [ 100.35, 13.6 ], [ 100.35, 13.7 ], [ 100.25, 13.7 ], [ 100.25, 13.6 ], [ 100.35, 13.6 ] ] ] } },
{ "type": "Feature", "properties": { "region_id": "BKK_13.65000_100.40000", "city": "BKK", "lat_center": 13.65, "lon_center": 100.4, "dlat": 0.1, "dlon": 0.1 }, "geometry": { "type": "Polygon", "coordinates": [ [ [ 100.45, 13.6 ], [ 100.45, 13.7 ], [ 100.35, 13.7 ], [ 100.35, 13.6 ], [ 100.45, 13.6 ] ] ] } },
{ "type": "Feature", "properties": { "region_id": "BKK_13.65000_100.50000", "city": "BKK", "lat_center": 13.65, "lon_center": 100.5, "dlat": 0.1, "dlon": 0.1 }, "geometry": { "type": "Polygon", "coordinates": [ [ [ 100.55, 13.6 ], [ 100.55, 13.7 ], [ 100.45, 13.7 ], [ 100.45, 13.6 ], [ 100.55, 13.6 ] ] ] } },
{ "type": "Feature", "properties": { "region_id": "BKK_13.65000_100.60000", "city": "BKK", "lat_center": 13.65, "lon_center": 100.6, "dlat": 0.1, "dlon": 0.1 }, "geometry": { "type": "Polygon", "coordinates": [ [ [ 100.65, 13.6 ], [ 100.65, 13.7 ], [ 100.55, 13.7 ], [ 100.55, 13.6 ], [ 100.65, 13.6 ] ] ] } },
{ "type": "Feature", "properties": { "region_id": "BKK_13.65000_100.70000", "city": "BKK", "lat_center": 13.65, "lon_center": 100.7, "dlat": 0.1, "dlon": 0.1 }, "geometry": { "type": "Polygon", "coordinates": [ [ [ 100.75, 13.6 ], [ 100.75, 13.7 ], [ 100.65, 13.7 ], [ 100.65, 13.6 ], [ 100.75, 13.6 ] ] ] } },
{ "type": "Feature", "properties": { "region_id": "BKK_13.65000_100.80000", "city": "BKK", "lat_center": 13.65, "lon_center": 100.8, "dlat": 0.1, "dlon": 0.1 }, "geometry": { "type": "Polygon", "coordinates": [ [ [ 100.85, 13.6 ], [ 100.85, 13.7 ], [ 100.75, 13.7 ], [ 100.75, 13.6 ], [ 100.85, 13.6 ] ] ] } },
{ "type": "Feature", "properties": { "region_id": "BKK_13.65000_100.90000", "city": "BKK", "lat_center": 13.65, "lon_center": 100.9, "dlat": 0.1, "dlon": 0.1 }, "geometry": { "type": "Polygon", "coordinates": [ [ [ 100.95, 13.6 ], [ 100.95, 13.7 ], [ 100.85, 13.7 ], [ 100.85, 13.6 ], [ 100.95, 13.6 ] ] ] } },
{ "type": "Feature", "properties": { "region_id": "BKK_13.55000_100.30000", "city": "BKK", "lat_center": 13.55, "lon_center": 100.3, "dlat": 0.1, "dlon": 0.1 }, "geometry": { "type": "Polygon", "coordinates": [ [ [ 100.35, 13.5 ], [ 100.35, 13.6 ], [ 100.25, 13.6 ], [ 100.25, 13.5 ], [ 100.35, 13.5 ] ] ] } },
{ "type": "Feature", "properties": { "region_id": "BKK_13.55000_100.40000", "city": "BKK", "lat_center": 13.55, "lon_center": 100.4, "dlat": 0.1, "dlon": 0.1 }, "geometry": { "type": "Polygon", "coordinates": [ [ [ 100.45, 13.5 ], [ 100.45, 13.6 ], [ 100.35, 13.6 ], [ 100.35, 13.5 ], [ 100.45, 13.5 ] ] ] } },
{ "type": "Feature", "properties": { "region_id": "BKK_13.55000_100.50000", "city": "BKK", "lat_center": 13.55, "lon_center": 100.5, "dlat": 0.1, "dlon": 0.1 }, "geometry": { "type": "Polygon", "coordinates": [ [ [ 100.55, 13.5 ], [ 100.55, 13.6 ], [ 100.45, 13.6 ], [ 100.45, 13.5 ], [ 100.55, 13.5 ] ] ] } },
{ "type": "Feature", "properties": { "region_id": "BKK_13.55000_100.70000", "city": "BKK", "lat_center": 13.55, "lon_center": 100.7, "dlat": 0.1, "dlon": 0.1 }, "geometry": { "type": "Polygon", "coordinates": [ [ [ 100.75, 13.5 ], [ 100.75, 13.6 ], [ 100.65, 13.6 ], [ 100.65, 13.5 ], [ 100.75, 13.5 ] ] ] } },
{ "type": "Feature", "properties": { "region_id": "BKK_13.55000_100.80000", "city": "BKK", "lat_center": 13.55, "lon_center": 100.8, "dlat": 0.1, "dlon": 0.1 }, "geometry": { "type": "Polygon", "coordinates": [ [ [ 100.85, 13.5 ], [ 100.85, 13.6 ], [ 100.75, 13.6 ], [ 100.75, 13.5 ], [ 100.85, 13.5 ] ] ] } },
{ "type": "Feature", "properties": { "region_id": "BKK_13.55000_100.90000", "city": "BKK", "lat_center": 13.55, "lon_center": 100.9, "dlat": 0.1, "dlon": 0.1 }, "geometry": { "type": "Polygon", "coordinates": [ [ [ 100.95, 13.5 ], [ 100.95, 13.6 ], [ 100.85, 13.6 ], [ 100.85, 13.5 ], [ 100.95, 13.5 ] ] ] } },
{ "type": "Feature", "properties": { "region_id": "BKK_13.45000_100.50000", "city": "BKK", "lat_center": 13.45, "lon_center": 100.5, "dlat": 0.1, "dlon": 0.1 }, "geometry": { "type": "Polygon", "coordinates": [ [ [ 100.55, 13.4 ], [ 100.55, 13.5 ], [ 100.45, 13.5 ], [ 100.45, 13.4 ], [ 100.55, 13.4 ] ] ] } },
{ "type": "Feature", "properties": { "region_id": "BKK_13.45000_100.80000", "city": "BKK", "lat_center": 13.45, "lon_center": 100.8, "dlat": 0.1, "dlon": 0.1 }, "geometry": { "type": "Polygon", "coordinates": [ [ [ 100.85, 13.4 ], [ 100.85, 13.5 ], [ 100.75, 13.5 ], [ 100.75, 13.4 ], [ 100.85, 13.4 ] ] ] } },
{ "type": "Feature", "properties": { "region_id": "BKK_13.45000_100.90000", "city": "BKK", "lat_center": 13.45, "lon_center": 100.9, "dlat": 0.1, "dlon": 0.1 }, "geometry": { "type": "Polygon", "coordinates": [ [ [ 100.95, 13.4 ], [ 100.95, 13.5 ], [ 100.85, 13.5 ], [ 100.85, 13.4 ], [ 100.95, 13.4 ] ] ] } }
]
}
