{
"type": "FeatureCollection",
"name": "grid_HK",
"crs": { "type": "name", "properties": { "name": "urn:ogc:def:crs:OGC:1.3:CRS84" } },
"features": [
{ "type": "Feature", "properties": { "region_id": "HK_22.55000_113.90000", "city": "HK", "lat_center": 22.55, "lon_center": 113.9, "dlat": 0.1, "dlon": 0.099999999999994316 }, "geometry": { "type": "Polygon", "coordinates": [ [ [ 113.95, 22.5 ], [ 113.95, 22.6 ], [ 113.85, 22.6 ], [ 113.85, 22.5 ], [ 113.95, 22.5 ] ] ] } },
{ "type": "Feature", "properties": { "region_id": "HK_22.55000_114.00000", "city": "HK", "lat_center": 22.55, "lon_center": 114.0, "dlat": 0.1, "dlon": 0.099999999999994316 }, "geometry": { "type": "Polygon", "coordinates": [ [ [ 114.05, 22.5 ], [ 114.05, 22.6 ], [ 113.95, 22.6 ], [ 113.95, 22.5 ], [ 114.05, 22.5 ] ] ] } },
{ "type": "Feature", "properties": { "region_id": "HK_22.55000_114.10000", "city": "HK", "lat_center": 22.55, "lon_center": 114.1, "dlat": 0.1, "dlon": 0.099999999999994316 }, "geometry": { "type": "Polygon", "coordinates": [ [ [ 114.15, 22.5 ], [ 114.15, 22.6 ], [ 114.05, 22.6 ], [ 114.05, 22.5 ], [ 114.15, 22.5 ] ] ] } },
{ "type": "Feature", "properties": { "region_id": "HK_22.55000_114.20000", "city": "HK", "lat_center": 22.55, "lon_center": 114.2, "dlat": 0.1, "dlon": 0.099999999999994316 }, "geometry": { "type": "Polygon", "coordinates": [ [ [ 114.25, 22.5 ], [ 114.25, 22.6 ], [ 114.15, 22.6 ], [ 114.15, 22.5 ], [ 114.25, 22.5 ] ] ] } },
{ "type": "Feature", "properties": { "region_id": "HK_22.55000_114.30000", "city": "HK", "lat_center": 22.55, "lon_center": 114.3, "dlat": 0.1, "dlon": 0.099999999999994316 }, "geometry": { "type": "Polygon", "coordinates": [ [ [ 114.35, 22.5 ], [ 114.35, 22.6 ], [ 114.25, 22.6 ], [ 114.25, 22.5 ], [ 114.35, 22.5 ] ] ] } },
{ "type": "Feature", "properties": { "region_id": "HK_22.45000_113.90000", "city": "HK", "lat_center": 22.45, "lon_center": 113.9, "dlat": 0.1, "dlon": 0.099999999999994316 }, "geometry": { "type": "Polygon", "coordinates": [ [ [ 113.95, 22.4 ], [ 113.95, 22.5 ], [ 113.85, 22.5 ], [ 113.85, 22.4 ], [ 113.95, 22.4 ] ] ] } },
{ "type": "Feature", "properties": { "region_id": "HK_22.45000_114.10000", "city": "HK", "lat_center": 22.45, "lon_center": 114.1, "dlat": 0.1, "dlon": 0.099999999999994316 }, "geometry": { "type": "Polygon", "coordinates": [ [ [ 114.15, 22.4 ], [ 114.15, 22.5 ], [ 114.05, 22.5 ], [ 114.05, 22.4 ], [ 114.15, 22.4 ] ] ] } },
{ "type": "Feature", "properties": { "region_id": "HK_22.45000_114.20000", "city": "HK", "lat_center": 22.45, "lon_center": 114.2, "dlat": 0.1, "dlon": 0.099999999999994316 }, "geometry": { "type": "Polygon", "coordinates": [ [ [ 114.25, 22.4 ], [ 114.25, 22.5 ], [ 114.15, 22.5 ], [ 114.15, 22.4 ], [ 114.25, 22.4 ] ] ] } },
{ "type": "Feature", "properties": { "region_id": "HK_22.45000_114.30000", "city": "HK", "lat_center": 22.45, "lon_center": 114.3, "dlat": 0.1, "dlon": 0.099999999999994316 }, "geometry": { "type": "Polygon", "coordinates": [ [ [ 114.35, 22.4 ], [ 114.35, 22.5 ], [ 114.25, 22.5 ], [ 114.25, 22.4 ], [ 114.35, 22.4 ] ] ] } },
{ "type": "Feature", "properties": { "region_id": "HK_22.35000_114.00000", "city": "HK", "lat_center": 22.35, "lon_center": 114.0, "dlat": 0.1, "dlon": 0.099999999999994316 }, "geometry": { "type": "Polygon", "coordinates": [ [ [ 114.05, 22.3 ], [ 114.05, 22.4 ], [ 113.95, 22.4 ], [ 113.95, 22.3 ], [ 114.05, 22.3 ] ] ] } },
{ "type": "Feature", "properties": { "region_id": "HK_22.35000_114.10000", "city": "HK", "lat_center": 22.35, "lon_center": 114.1, "dlat": 0.1, "dlon": 0.099999999999994316 }, "geometry": { "type": "Polygon", "coordinates": [ [ [ 114.15, 22.3 ], [ 114.15, 22.4 ], [ 114.05, 22.4 ], [ 114.05, 22.3 ], [ 114.15, 22.3 ] ] ] } },
{ "type": "Feature", "properties": { "region_id": "HK_22.35000_114.20000", "city": "HK", "lat_center": 22.35, "lon_center": 114.2, "dlat": 0.1, "dlon": 0.099999999999994316 }, "geometry": { "type": "Polygon", "coordinates": [ [ [ 114.25, 22.3 ], [ 114.25, 22.4 ], [ 114.15, 22.4 ], [ 114.15, 22.3 ], [ 114.25, 22.3 ] ] ] } },
{ "type": "Feature", "properties": { "region_id": "HK_22.35000_114.30000", "city": "HK", "lat_center": 22.35, "lon_center": 114.3, "dlat": 0.1, "dlon": 0.099999999999994316 }, "geometry": { "type": "Polygon", "coordinates": [ [ [ 114.35, 22.3 ], [ 114.35, 22.4 ], [ 114.25, 22.4 ], [ 114.25, 22.3 ], [ 114.35, 22.3 ] ] ] } }
]
}
