{
"type": "FeatureCollection",
"name": "grid_KL",
"crs": { "type": "name", "properties": { "name": "urn:ogc:def:crs:OGC:1.3:CRS84" } },
"features": [
{ "type": "Feature", "properties": { "region_id": "KL_3.30000_101.45000", "city": "KL", "lat_center": 3.3, "lon_center": 101.45, "dlat": 0.1, "dlon": 0.099999999999994316 }, "geometry": { "type": "Polygon", "coordinates": [ [ [ 101.5, 3.25 ], [ 101.5, 3.35 ], [ 101.4, 3.35 ], [ 101.4, 3.25 ], [ 101.5, 3.25 ] ] ] } },
{ "type": "Feature", "properties": { "region_id": "KL_3.30000_101.55000", "city": "KL", "lat_center": 3.3, "lon_center": 101.55, "dlat": 0.1, "dlon": 0.099999999999994316 }, "geometry": { "type": "Polygon", "coordinates": [ [ [ 101.6, 3.25 ], [ 101.6, 3.35 ], [ 101.5, 3.35 ], [ 101.5, 3.25 ], [ 101.6, 3.25 ] ] ] } },
{ "type": "Feature", "properties": { "region_id": "KL_3.30000_101.65000", "city": "KL", "lat_center": 3.3, "lon_center": 101.65, "dlat": 0.1, "dlon": 0.099999999999994316 }, "geometry": { "type": "Polygon", "coordinates": [ [ [ 101.7, 3.25 ], [ 101.7, 3.35 ], [ 101.6, 3.35 ], [ 101.6, 3.25 ], [ 101.7, 3.25 ] ] ] } },
{ "type": "Feature", "properties": { "region_id": "KL_3.30000_101.75000", "city": "KL", "lat_center": 3.3, "lon_center": 101.75, "dlat": 0.1, "dlon": 0.099999999999994316 }, "geometry": { "type": "Polygon", "coordinates": [ [ [ 101.8, 3.25 ], [ 101.8, 3.35 ], [ 101.7, 3.35 ], [ 101.7, 3.25 ], [ 101.8, 3.25 ] ] ] } },
{ "type": "Feature", "properties": { "region_id": "KL_3.30000_101.85000", "city": "KL", "lat_center": 3.3, "lon_center": 101.85, "dlat": 0.1, "dlon": 0.099999999999994316 }, "geometry": { "type": "Polygon", "coordinates": [ [ [ 101.9, 3.25 ], [ 101.9, 3.35 ], [ 101.8, 3.35 ], [ 101.8, 3.25 ], [ 101.9, 3.25 ] ] ] } },
{ "type": "Feature", "properties": { "region_id": "KL_3.30000_101.95000", "city": "KL", "lat_center": 3.3, "lon_center": 101.95, "dlat": 0.1, "dlon": 0.099999999999994316 }, "geometry": { "type": "Polygon", "coordinates": [ [ [ 102.0, 3.25 ], [ 102.0, 3.35 ], [ 101.9, 3.35 ], [ 101.9, 3.25 ], [ 102.0, 3.25 ] ] ] } },
{ "type": "Feature", "properties": { "region_id": "KL_3.20000_101.45000", "city": "KL", "lat_center": 3.2, "lon_center": 101.45, "dlat": 0.1, "dlon": 0.099999999999994316 }, "geometry": { "type": "Polygon", "coordinates": [ [ [ 101.5, 3.15 ], [ 101.5, 3.25 ], [ 101.4, 3.25 ], [ 101.4, 3.15 ], [ 101.5, 3.15 ] ] ] } },
{ "type": "Feature", "properties": { "region_id": "KL_3.20000_101.55000", "city": "KL", "lat_center": 3.2, "lon_center": 101.55, "dlat": 0.1, "dlon": 0.099999999999994316 }, "geometry": { "type": "Polygon", "coordinates": [ [ [ 101.6, 3.15 ], [ 101.6, 3.25 ], [ 101.5, 3.25 ], [ 101.5, 3.15 ], [ 101.6, 3.15 ] ] ] } },
{ "type": "Feature", "properties": { "region_id": "KL_3.20000_101.65000", "city": "KL", "lat_center": 3.2, "lon_center": 101.65, "dlat": 0.1, "dlon": 0.099999999999994316 }, "geometry": { "type": "Polygon", "coordinates": [ [ [ 101.7, 3.15 ], [ 101.7, 3.25 ], [ 101.6, 3.25 ], [ 101.6, 3.15 ], [ 101.7, 3.15 ] ] ] } },
{ "type": "Feature", "properties": { "region_id": "KL_3.20000_101.75000", "city": "KL", "lat_center": 3.2, "lon_center": 101.75, "dlat": 0.1, "dlon": 0.099999999999994316 }, "geometry": { "type": "Polygon", "coordinates": [ [ [ 101.8, 3.15 ], [ 101.8, 3.25 ], [ 101.7, 3.25 ], [ 101.7, 3.15 ], [ 101.8, 3.15 ] ] ] } },
{ "type": "Feature", "properties": { "region_id": "KL_3.20000_101.85000", "city": "KL", "lat_center": 3.2, "lon_center": 101.85, "dlat": 0.1, "dlon": 0.099999999999994316 }, "geometry": { "type": "Polygon", "coordinates": [ [ [ 101.9, 3.15 ], [ 101.9, 3.25 ], [ 101.8, 3.25 ], [ 101.8, 3.15 ], [ 101.9, 3.15 ] ] ] } },
{ "type": "Feature", "properties": { "region_id": "KL_3.20000_101.95000", "city": "KL", "lat_center": 3.2, "lon_center": 101.95, "dlat": 0.1, "dlon": 0.099999999999994316 }, "geometry": { "type": "Polygon", "coordinates": [ [ [ 102.0, 3.15 ], [ 102.0, 3.25 ], [ 101.9, 3.25 ], [ 101.9, 3.15 ], [ 102.0, 3.15 ] ] ] } },
{ "type": "Feature", "properties": { "region_id": "KL_3.10000_101.45000", "city": "KL", "lat_center": 3.1, "lon_center": 101.45, "dlat": 0.1, "dlon": 0.099999999999994316 }, "geometry": { "type": "Polygon", "coordinates": [ [ [ 101.5, 3.05 ], [ 101.5, 3.15 ], [ 101.4, 3.15 ], [ 101.4, 3.05 ], [ 101.5, 3.05 ] ] ] } },
{ "type": "Feature", "properties": { "region_id": "KL_3.10000_101.55000", "city": "KL", "lat_center": 3.1, "lon_center": 101.55, "dlat": 0.1, "dlon": 0.099999999999994316 }, "geometry": { "type": "Polygon", "coordinates": [ [ [ 101.6, 3.05 ], [ 101.6, 3.15 ], [ 101.5, 3.15 ], [ 101.5, 3.05 ], [ 101.6, 3.05 ] ] ] } },
{ "type": "Feature", "properties": { "region_id": "KL_3.10000_101.65000", "city": "KL", "lat_center": 3.1, "lon_center": 101.65, "dlat": 0.1, "dlon": 0.099999999999994316 }, "geometry": { "type": "Polygon", "coordinates": [ [ [ 101.7, 3.05 ], [ 101.7, 3.15 ], [ 101.6, 3.15 ], [ 101.6, 3.05 ], [ 101.7, 3.05 ] ] ] } },
{ "type": "Feature", "properties": { "region_id": "KL_3.10000_101.75000", "city": "KL", "lat_center": 3.1, "lon_center": 101.75, "dlat": 0.1, "dlon": 0.099999999999994316 }, "geometry": { "type": "Polygon", "coordinates": [ [ [ 101.8, 3.05 ], [ 101.8, 3.15 ], [ 101.7, 3.15 ], [ 101.7, 3.05 ], [ 101.8, 3.05 ] ] ] } },
{ "type": "Feature", "properties": { "region_id": "KL_3.10000_101.85000", "city": "KL", "lat_center": 3.1, "lon_center": 101.85, "dlat": 0.1, "dlon": 0.099999999999994316 }, "geometry": { "type": "Polygon", "coordinates": [ [ [ 101.9, 3.05 ], [ 101.9, 3.15 ], [ 101.8, 3.15 ], [ 101.8, 3.05 ], [ 101.9, 3.05 ] ] ] } },
{ "type": "Feature", "properties": { "region_id": "KL_3.10000_101.95000", "city": "KL", "lat_center": 3.1, "lon_center": 101.95, "dlat": 0.1, "dlon": 0.099999999999994316 }, "geometry": { "type": "Polygon", "coordinates": [ [ [ 102.0, 3.05 ], [ 102.0, 3.15 ], [ 101.9, 3.15 ], [ 101.9, 3.05 ], [ 102.0, 3.05 ] ] ] } },
{ "type": "Feature", "properties": { "region_id": "KL_3.00000_101.45000", "city": "KL", "lat_center": 2.9999999999999996, "lon_center": 101.45, "dlat": 0.1, "dlon": 0.099999999999994316 }, "geometry": { "type": "Polygon", "coordinates": [ [ [ 101.5, 2.95 ], [ 101.5, 3.05 ], [ 101.4, 3.05 ], [ 101.4, 2.95 ], [ 101.5, 2.95 ] ] ] } },
{ "type": "Feature", "properties": { "region_id": "KL_3.00000_101.55000", "city": "KL", "lat_center": 2.9999999999999996, "lon_center": 101.55, "dlat": 0.1, "dlon": 0.099999999999994316 }, "geometry": { "type": "Polygon", "coordinates": [ [ [ 101.6, 2.95 ], [ 101.6, 3.05 ], [ 101.5, 3.05 ], [ 101.5, 2.95 ], [ 101.6, 2.95 ] ] ] } },
{ "type": "Feature", "properties": { "region_id": "KL_3.00000_101.65000", "city": "KL", "lat_center": 2.9999999999999996, "lon_center": 101.65, "dlat": 0.1, "dlon": 0.099999999999994316 }, "geometry": { "type": "Polygon", "coordinates": [ [ [ 101.7, 2.95 ], [ 101.7, 3.05 ], [ 101.6, 3.05 ], [ 101.6, 2.95 ], [ 101.7, 2.95 ] ] ] } },
{ "type": "Feature", "properties": { "region_id": "KL_3.00000_101.75000", "city": "KL", "lat_center": 2.9999999999999996, "lon_center": 101.75, "dlat": 0.1, "dlon": 0.099999999999994316 }, "geometry": { "type": "Polygon", "coordinates": [ [ [ 101.8, 2.95 ], [ 101.8, 3.05 ], [ 101.7, 3.05 ], [ 101.7, 2.95 ], [ 101.8, 2.95 ] ] ] } },
{ "type": "Feature", "properties": { "region_id": "KL_3.00000_101.85000", "city": "KL", "lat_center": 2.9999999999999996, "lon_center": 101.85, "dlat": 0.1, "dlon": 0.099999999999994316 }, "geometry": { "type": "Polygon", "coordinates": [ [ [ 101.9, 2.95 ], [ 101.9, 3.05 ], [ 101.8, 3.05 ], [ 101.8, 2.95 ], [ 101.9, 2.95 ] ] ] } },
{ "type": "Feature", "properties": { "region_id": "KL_3.00000_101.95000", "city": "KL", "lat_center": 2.9999999999999996, "lon_center": 101.95, "dlat": 0.1, "dlon": 0.099999999999994316 }, "geometry": { "type": "Polygon", "coordinates": [ [ [ 102.0, 2.95 ], [ 102.0, 3.05 ], [ 101.9, 3.05 ], [ 101.9, 2.95 ], [ 102.0, 2.95 ] ] ] } },
{ "type": "Feature", "properties": { "region_id": "KL_2.90000_101.45000", "city": "KL", "lat_center": 2.9, "lon_center": 101.45, "dlat": 0.1, "dlon": 0.099999999999994316 }, "geometry": { "type": "Polygon", "coordinates": [ [ [ 101.5, 2.85 ], [ 101.5, 2.95 ], [ 101.4, 2.95 ], [ 101.4, 2.85 ], [ 101.5, 2.85 ] ] ] } },
{ "type": "Feature", "properties": { "region_id": "KL_2.90000_101.55000", "city": "KL", "lat_center": 2.9, "lon_center": 101.55, "dlat": 0.1, "dlon": 0.099999999999994316 }, "geometry": { "type": "Polygon", "coordinates": [ [ [ 101.6, 2.85 ], [ 101.6, 2.95 ], [ 101.5, 2.95 ], [ 101.5, 2.85 ], [ 101.6, 2.85 ] ] ] } },
{ "type": "Feature", "properties": { "region_id": "KL_2.90000_101.65000", "city": "KL", "lat_center": 2.9, "lon_center": 101.65, "dlat": 0.1, "dlon": 0.099999999999994316 }, "geometry": { "type": "Polygon", "coordinates": [ [ [ 101.7, 2.85 ], [ 101.7, 2.95 ], [ 101.6, 2.95 ], [ 101.6, 2.85 ], [ 101.7, 2.85 ] ] ] } },
{ "type": "Feature", "properties": { "region_id": "KL_2.90000_101.75000", "city": "KL", "lat_center": 2.9, "lon_center": 101.75, "dlat": 0.1, "dlon": 0.099999999999994316 }, "geometry": { "type": "Polygon", "coordinates": [ [ [ 101.8, 2.85 ], [ 101.8, 2.95 ], [ 101.7, 2.95 ], [ 101.7, 2.85 ], [ 101.8, 2.85 ] ] ] } },
{ "type": "Feature", "properties": { "region_id": "KL_2.90000_101.85000", "city": "KL", "lat_center": 2.9, "lon_center": 101.85, "dlat": 0.1, "dlon": 0.099999999999994316 }, "geometry": { "type": "Polygon", "coordinates": [ [ [ 101.9, 2.85 ], [ 101.9, 2.95 ], [ 101.8, 2.95 ], [ 101.8, 2.85 ], [ 101.9, 2.85 ] ] ] } },
{ "type": "Feature", "properties": { "region_id": "KL_2.90000_101.95000", "city": "KL", "lat_center": 2.9, "lon_center": 101.95, "dlat": 0.1, "dlon": 0.099999999999994316 }, "geometry": { "type": "Polygon", "coordinates": [ [ [ 102.0, 2.85 ], [ 102.0, 2.95 ], [ 101.9, 2.95 ], [ 101.9, 2.85 ], [ 102.0, 2.85 ] ] ] } }
]
}
