{
"type": "FeatureCollection",
"name": "grid_HK_land_clipped",
"crs": { "type": "name", "properties": { "name": "urn:ogc:def:crs:OGC:1.3:CRS84" } },
"features": [
{ "type": "Feature", "properties": { "region_id": "HK_22.35000_114.00000", "piece_area_m2": 96128377.644199923, "city": "HK", "lat_center": 22.35, "lon_center": 114.0, "dlat": 0.1, "dlon": 0.099999999999994316, "cell_area_m2": 133985542.71998617, "land_area_m2": 96128377.644199923, "land_fraction": 0.71745335871868499 }, "geometry": { "type": "MultiPolygon", "coordinates": [ [ [ [ 113.985002791799999, 22.3225015019 ], [ 113.977723197700001, 22.322492725299998 ], [ 113.977715509399999, 22.3279110448 ], [ 113.984995384599998, 22.327919823799999 ], [ 113.985002791799999, 22.3225015019 ] ] ], [ [ [ 113.977700125599995, 22.338747672899999 ], [ 113.977692430199994, 22.344165981500002 ], [ 113.984973149200002, 22.344174767599998 ], [ 113.984980563299999, 22.338756456599999 ], [ 113.984987975099997, 22.333338142 ], [ 113.977707818699997, 22.333329360600001 ], [ 113.977700125599995, 22.338747672899999 ] ] ], [ [ [ 114.035981784800001, 22.300880406499999 ], [ 114.028703292, 22.300873924899999 ], [ 114.028704213255025, 22.3 ], [ 113.95, 22.3 ], [ 113.95, 22.327874604483714 ], [ 113.955875906599999, 22.327882746 ], [ 113.955867372399993, 22.3333010542 ], [ 113.955858835499996, 22.338719358799999 ], [ 113.955850296, 22.344137659800001 ], [ 113.955841753900003, 22.3495559572 ], [ 113.95, 22.349547855510355 ], [ 113.95, 22.4 ], [ 114.05, 22.4 ], [ 114.05, 22.355075371293502 ], [ 114.043208687399996, 22.3550699201 ], [ 114.0359273806, 22.355063748300001 ], [ 114.028646076399994, 22.3550572491 ], [ 114.021364774899993, 22.3550504225 ], [ 114.014083476400003, 22.355043268599999 ], [ 114.014077181900007, 22.360461577300001 ], [ 114.006795604800004, 22.360454094 ], [ 113.9995140308, 22.3604462831 ], [ 113.992232460300002, 22.3604381448 ], [ 113.984950893100006, 22.360429679 ], [ 113.984943469800001, 22.365847975499999 ], [ 113.984936044299999, 22.371266268500001 ], [ 113.977653917200001, 22.371257470500002 ], [ 113.977661624600003, 22.3658391799 ], [ 113.970379783, 22.365830056699998 ], [ 113.963097945399994, 22.365820606 ], [ 113.955816111700003, 22.365810827699999 ], [ 113.955824661700007, 22.360392541100001 ], [ 113.955833209100007, 22.354974251 ], [ 113.963114479500007, 22.354984024 ], [ 113.963122742799996, 22.349565727600002 ], [ 113.963131003499996, 22.344147427599999 ], [ 113.963139261600006, 22.338729124 ], [ 113.970419691700002, 22.338738562 ], [ 113.970427666, 22.3333202522 ], [ 113.970435637899996, 22.3279019388 ], [ 113.963155770200004, 22.3278925059 ], [ 113.963164020700006, 22.322474191400001 ], [ 113.963172268700006, 22.317055873299999 ], [ 113.963180514100003, 22.311637551600001 ], [ 113.970459538699998, 22.311646976900001 ], [ 113.970467500699996, 22.306228649099999 ], [ 113.977746248399995, 22.306237745200001 ], [ 113.977738567200007, 22.3116560755 ], [ 113.985017599399995, 22.311664847399999 ], [ 113.985010196700003, 22.317083176499999 ], [ 113.992289513399996, 22.317091624 ], [ 113.992282389500005, 22.322509951699999 ], [ 113.999561990700002, 22.3225180747 ], [ 113.999555145599999, 22.327936401 ], [ 114.006835031199998, 22.327944199200001 ], [ 114.006828465200002, 22.333362524 ], [ 114.014108635100001, 22.3333699973 ], [ 114.0141023483, 22.338788320500001 ], [ 114.021382802600002, 22.338795468699999 ], [ 114.028663259699997, 22.3388022898 ], [ 114.035943719599999, 22.338808783699999 ], [ 114.035938274900005, 22.344227108799998 ], [ 114.043219018800002, 22.344233277299999 ], [ 114.043213853899999, 22.3496516005 ], [ 114.05, 22.349657046265847 ], [ 114.05, 22.300891958840502 ], [ 114.043260280300004, 22.300886561599999 ], [ 114.035981784800001, 22.300880406499999 ] ], [ [ 114.028697578399999, 22.3062922736 ], [ 114.0214188076, 22.306285463599998 ], [ 114.021424801899997, 22.300867116799999 ], [ 114.028703292, 22.300873924899999 ], [ 114.028697578399999, 22.3062922736 ] ] ] ] } },
{ "type": "Feature", "properties": { "region_id": "HK_22.35000_114.10000", "piece_area_m2": 102664776.53167276, "city": "HK", "lat_center": 22.35, "lon_center": 114.1, "dlat": 0.1, "dlon": 0.099999999999994316, "cell_area_m2": 133985542.7200086, "land_area_m2": 102664776.53167276, "land_fraction": 0.76623771824556275 }, "geometry": { "type": "MultiPolygon", "coordinates": [ [ [ [ 114.145159629609111, 22.3 ], [ 114.145159418099993, 22.3009384496 ], [ 114.15, 22.300939285834385 ], [ 114.15, 22.3 ], [ 114.145159629609111, 22.3 ] ] ], [ [ [ 114.065082847699998, 22.317158126799999 ], [ 114.065078533800005, 22.322576472600002 ], [ 114.072358162, 22.3225813269 ], [ 114.072362194799993, 22.317162979900001 ], [ 114.065082847699998, 22.317158126799999 ] ] ], [ [ [ 114.15, 22.317194375002853 ], [ 114.145155752199997, 22.3171935375 ], [ 114.145156974499997, 22.3117751785 ], [ 114.137877894799999, 22.311773593600002 ], [ 114.130598815699997, 22.311771682100002 ], [ 114.130597031500002, 22.3171900402 ], [ 114.123317672400006, 22.317187801399999 ], [ 114.116038314400001, 22.3171852358 ], [ 114.116035967599998, 22.322603588900002 ], [ 114.108756329599998, 22.3226006957 ], [ 114.101476693, 22.3225974757 ], [ 114.094197057800002, 22.3225939288 ], [ 114.086917424099994, 22.322590055 ], [ 114.086913952200007, 22.3280084009 ], [ 114.0869104792, 22.333426743099999 ], [ 114.086907005100002, 22.338845081700001 ], [ 114.079626529600006, 22.338840877700001 ], [ 114.079622773099999, 22.344259211499999 ], [ 114.079619015399999, 22.349677541799998 ], [ 114.072337978899995, 22.349673008100002 ], [ 114.072342018, 22.344254679100001 ], [ 114.065061264899995, 22.3442498195 ], [ 114.065065584199999, 22.3388314882 ], [ 114.065069902100007, 22.333413153199999 ], [ 114.065074218600003, 22.327994814699998 ], [ 114.057794311400002, 22.3279896321 ], [ 114.057798907700004, 22.322571291399999 ], [ 114.057803502599995, 22.317152947 ], [ 114.057808096, 22.311734599099999 ], [ 114.057812688, 22.3063162475 ], [ 114.0505339069, 22.306310743899999 ], [ 114.050538778299995, 22.3008923903 ], [ 114.05, 22.300891958840502 ], [ 114.05, 22.349657046265847 ], [ 114.050494881800006, 22.349657443400002 ], [ 114.050489996799996, 22.355075764599999 ], [ 114.05, 22.355075371293502 ], [ 114.05, 22.4 ], [ 114.15, 22.4 ], [ 114.15, 22.317194375002853 ] ] ] ] } },
{ "type": "Feature", "properties": { "region_id": "HK_22.35000_114.20000", "piece_area_m2": 132124053.82293254, "city": "HK", "lat_center": 22.35, "lon_center": 114.2, "dlat": 0.1, "dlon": 0.099999999999994316, "cell_area_m2": 133985542.71996376, "land_area_m2": 132124053.82293254, "land_fraction": 0.98610679287300551 }, "geometry": { "type": "Polygon", "coordinates": [ [ [ 114.15, 22.4 ], [ 114.25, 22.4 ], [ 114.25, 22.3 ], [ 114.217944337332185, 22.3 ], [ 114.217944611299998, 22.300936330799999 ], [ 114.210666093100002, 22.300938012 ], [ 114.210667398300004, 22.3063563782 ], [ 114.203388598700002, 22.3063577333 ], [ 114.196109798699993, 22.3063587617 ], [ 114.196109055, 22.300940394800001 ], [ 114.196108925960544, 22.3 ], [ 114.15, 22.3 ], [ 114.15, 22.300939285834385 ], [ 114.1524379369, 22.300939707 ], [ 114.152436996099993, 22.306358073599998 ], [ 114.152436054899994, 22.311776436599999 ], [ 114.152435113500005, 22.317194796 ], [ 114.15, 22.317194375002853 ], [ 114.15, 22.4 ] ] ] } },
{ "type": "Feature", "properties": { "region_id": "HK_22.35000_114.30000", "piece_area_m2": 110246642.26482403, "city": "HK", "lat_center": 22.35, "lon_center": 114.3, "dlat": 0.1, "dlon": 0.099999999999994316, "cell_area_m2": 133985542.71998617, "land_area_m2": 110246642.26482403, "land_fraction": 0.82282491100720012 }, "geometry": { "type": "MultiPolygon", "coordinates": [ [ [ [ 114.348970963, 22.311686918199999 ], [ 114.341691917199995, 22.3116944806 ], [ 114.341698279799999, 22.317112818399998 ], [ 114.341704644299995, 22.322531152700002 ], [ 114.341711010699996, 22.327949483299999 ], [ 114.341717379100004, 22.3333678103 ], [ 114.348997549200007, 22.333360239800001 ], [ 114.348990899599997, 22.3279419148 ], [ 114.35, 22.327940820380167 ], [ 114.35, 22.311685802919303 ], [ 114.348970963, 22.311686918199999 ] ] ], [ [ [ 114.290764915699995, 22.3442483131 ], [ 114.298045666799993, 22.344243029099999 ], [ 114.2980409826, 22.338824699100002 ], [ 114.290760512899993, 22.338829981699998 ], [ 114.290764915699995, 22.3442483131 ] ] ], [ [ [ 114.35, 22.4 ], [ 114.35, 22.333359152344809 ], [ 114.348997549200007, 22.333360239800001 ], [ 114.349004200799996, 22.338778561200002 ], [ 114.341723749500005, 22.338786133700001 ], [ 114.341717379100004, 22.3333678103 ], [ 114.334437206100006, 22.333375053800001 ], [ 114.334431118799998, 22.3279567248 ], [ 114.334425033499997, 22.3225383923 ], [ 114.33441895, 22.317120056099998 ], [ 114.327139617300006, 22.317126967 ], [ 114.319860281800004, 22.3171335511 ], [ 114.319854762, 22.311715207799999 ], [ 114.319849243899995, 22.3062968608 ], [ 114.327128017600003, 22.306290280199999 ], [ 114.3271222204, 22.300871931300001 ], [ 114.327121287793503, 22.3 ], [ 114.25, 22.3 ], [ 114.25, 22.4 ], [ 114.35, 22.4 ] ], [ [ 114.341730121799998, 22.344204453500002 ], [ 114.334449386100005, 22.344211700799999 ], [ 114.334455478899997, 22.349630018900001 ], [ 114.327174458800002, 22.3496369408 ], [ 114.327168647500002, 22.344218620900001 ], [ 114.327162837900005, 22.338800297300001 ], [ 114.334443295100002, 22.3387933791 ], [ 114.341723749500005, 22.338786133700001 ], [ 114.341730121799998, 22.344204453500002 ] ], [ [ 114.319865803300004, 22.322551890900002 ], [ 114.312586184200001, 22.322558149900001 ], [ 114.312591426300003, 22.327976487699999 ], [ 114.31259667, 22.333394821900001 ], [ 114.312601915200005, 22.3388131524 ], [ 114.305321450099996, 22.338819089299999 ], [ 114.305326415600007, 22.344237417900001 ], [ 114.298045666799993, 22.344243029099999 ], [ 114.298050352399997, 22.3496613555 ], [ 114.290769319899994, 22.349666640900001 ], [ 114.290773725299999, 22.3550849652 ], [ 114.290778132200003, 22.360503285699998 ], [ 114.283496534400001, 22.3605082465 ], [ 114.283492409199994, 22.355089924600001 ], [ 114.283488285199994, 22.349671599099999 ], [ 114.276207248700004, 22.349676229899998 ], [ 114.276203407400004, 22.344257899500001 ], [ 114.2689226504, 22.344262201900001 ], [ 114.268919091699999, 22.338843866800001 ], [ 114.276199567299997, 22.338839565600001 ], [ 114.276195728299996, 22.333421228 ], [ 114.276191890600003, 22.3280028868 ], [ 114.276188054, 22.322584542 ], [ 114.283467684200005, 22.322579917300001 ], [ 114.290747312500002, 22.322574965699999 ], [ 114.290751711300004, 22.327993308 ], [ 114.2907561114, 22.333411646599998 ], [ 114.298036299900005, 22.333406365399998 ], [ 114.305316486099997, 22.3334007572 ], [ 114.305311523599997, 22.327982421400002 ], [ 114.305306562599995, 22.322564082 ], [ 114.305301603100006, 22.317145739 ], [ 114.2980222602, 22.317151342799999 ], [ 114.298017583100005, 22.3117329948 ], [ 114.3052966451, 22.311727392400002 ], [ 114.312575704799997, 22.311721463400001 ], [ 114.312580943699999, 22.317139808499999 ], [ 114.319860281800004, 22.3171335511 ], [ 114.319865803300004, 22.322551890900002 ] ], [ [ 114.290800186499993, 22.3875948345 ], [ 114.283517179300006, 22.3875998018 ], [ 114.2835130478, 22.382181498 ], [ 114.290795772899997, 22.382176532 ], [ 114.290800186499993, 22.3875948345 ] ], [ [ 114.276222625399996, 22.371349515199999 ], [ 114.276218779499999, 22.3659311993 ], [ 114.283500660900003, 22.365926564799999 ], [ 114.283504788599998, 22.371344879500001 ], [ 114.283508917600003, 22.3767631905 ], [ 114.276226472499999, 22.3767678275 ], [ 114.276222625399996, 22.371349515199999 ] ] ] ] } },
{ "type": "Feature", "properties": { "region_id": "HK_22.45000_113.90000", "piece_area_m2": 20316617.865704339, "city": "HK", "lat_center": 22.45, "lon_center": 113.9, "dlat": 0.1, "dlon": 0.099999999999994316, "cell_area_m2": 134081963.03872588, "land_area_m2": 20316617.865704339, "land_fraction": 0.15152386946957544 }, "geometry": { "type": "MultiPolygon", "coordinates": [ [ [ [ 113.904776779615958, 22.4 ], [ 113.904769654899994, 22.403660966099999 ], [ 113.897485883800002, 22.403648544 ], [ 113.897475053500003, 22.4090667774 ], [ 113.897464219900002, 22.414485007100001 ], [ 113.904748555899999, 22.414497435800001 ], [ 113.904738001499993, 22.419915665200001 ], [ 113.912022625099993, 22.419927768899999 ], [ 113.912012350099999, 22.425345998 ], [ 113.919297261300002, 22.425357776399998 ], [ 113.919287265899996, 22.430776005 ], [ 113.9265724646, 22.430787458 ], [ 113.933857668, 22.4307985823 ], [ 113.941142875899999, 22.430809378100001 ], [ 113.941133725900002, 22.436227612 ], [ 113.941124573, 22.4416458424 ], [ 113.948410351, 22.441656315100001 ], [ 113.948401478299999, 22.4470745446 ], [ 113.9483926029, 22.452492770500001 ], [ 113.95, 22.452495009519598 ], [ 113.95, 22.4 ], [ 113.904776779615958, 22.4 ] ] ], [ [ [ 113.941069596399998, 22.474155148 ], [ 113.948357073699995, 22.474165637700001 ], [ 113.948365960100006, 22.468747426299998 ], [ 113.941078766199993, 22.468736939500001 ], [ 113.941069596399998, 22.474155148 ] ] ], [ [ [ 113.948348184599993, 22.479583845400001 ], [ 113.95, 22.479586148927194 ], [ 113.95, 22.474167928311392 ], [ 113.948357073699995, 22.474165637700001 ], [ 113.948348184599993, 22.479583845400001 ] ] ] ] } },
{ "type": "Feature", "properties": { "region_id": "HK_22.45000_114.10000", "piece_area_m2": 134081963.03872588, "city": "HK", "lat_center": 22.45, "lon_center": 114.1, "dlat": 0.1, "dlon": 0.099999999999994316, "cell_area_m2": 134081963.03872588, "land_area_m2": 134081963.03872588, "land_fraction": 1.0 }, "geometry": { "type": "Polygon", "coordinates": [ [ [ 114.05, 22.4 ], [ 114.05, 22.5 ], [ 114.15, 22.5 ], [ 114.15, 22.4 ], [ 114.05, 22.4 ] ] ] } },
{ "type": "Feature", "properties": { "region_id": "HK_22.45000_114.20000", "piece_area_m2": 125725832.27838425, "city": "HK", "lat_center": 22.45, "lon_center": 114.2, "dlat": 0.1, "dlon": 0.099999999999994316, "cell_area_m2": 134081963.03868102, "land_area_m2": 125725832.27838425, "land_fraction": 0.93767893480284059 }, "geometry": { "type": "MultiPolygon", "coordinates": [ [ [ [ 114.225269964299997, 22.436392373099999 ], [ 114.217984402100001, 22.436394393899999 ], [ 114.217985999899994, 22.441812669400001 ], [ 114.225271845099996, 22.441810648099999 ], [ 114.225269964299997, 22.436392373099999 ] ] ], [ [ [ 114.15, 22.4 ], [ 114.15, 22.5 ], [ 114.25, 22.5 ], [ 114.25, 22.447219567103602 ], [ 114.247132105, 22.447220880700002 ], [ 114.239845979899997, 22.4472238892 ], [ 114.2398484279, 22.4526421556 ], [ 114.232562018500005, 22.452644835899999 ], [ 114.232559853599994, 22.4472265687 ], [ 114.225273726300003, 22.447228919400001 ], [ 114.217987598199997, 22.447230941299999 ], [ 114.217985999899994, 22.441812669400001 ], [ 114.210700154, 22.441814361900001 ], [ 114.210701469300005, 22.447232634199999 ], [ 114.203415339800003, 22.447233998200002 ], [ 114.196129209800006, 22.447235033399998 ], [ 114.188843079500003, 22.447235739700002 ], [ 114.188842613299997, 22.4418174666 ], [ 114.196128460599994, 22.4418167605 ], [ 114.203414307499997, 22.441815725600001 ], [ 114.203413275599999, 22.436397449299999 ], [ 114.210698839100004, 22.4363960859 ], [ 114.210697524599993, 22.430977806400001 ], [ 114.217982804800002, 22.430976114700002 ], [ 114.217981207899996, 22.425557832 ], [ 114.225266204600004, 22.425555812300001 ], [ 114.225268084199996, 22.430974094500002 ], [ 114.232553362700003, 22.430971745600001 ], [ 114.232555525699993, 22.436390023600001 ], [ 114.232557689299995, 22.441808298 ], [ 114.239843532600005, 22.441805619099998 ], [ 114.247129374699995, 22.4418026114 ], [ 114.247126645199998, 22.436384338500002 ], [ 114.25, 22.436383023010499 ], [ 114.25, 22.4 ], [ 114.15, 22.4 ] ] ] ] } },
{ "type": "Feature", "properties": { "region_id": "HK_22.45000_114.30000", "piece_area_m2": 115866775.34461035, "city": "HK", "lat_center": 22.45, "lon_center": 114.3, "dlat": 0.1, "dlon": 0.099999999999994316, "cell_area_m2": 134081963.03870346, "land_area_m2": 115866775.34461035, "land_fraction": 0.86414885879292203 }, "geometry": { "type": "MultiPolygon", "coordinates": [ [ [ [ 114.261701054900001, 22.441795609700002 ], [ 114.254415215500003, 22.441799275 ], [ 114.254418228800006, 22.447217543400001 ], [ 114.261704351199995, 22.447213877100001 ], [ 114.261701054900001, 22.441795609700002 ] ] ], [ [ [ 114.25, 22.436383023010499 ], [ 114.254412203100003, 22.436381003 ], [ 114.261697759599997, 22.436377338700002 ], [ 114.268983314500005, 22.4363733456 ], [ 114.276268867799999, 22.436369023899999 ], [ 114.276272728899997, 22.441787292800001 ], [ 114.276276591200002, 22.447205558 ], [ 114.2762804547, 22.452623819599999 ], [ 114.283566855100005, 22.452619165600002 ], [ 114.283571002900004, 22.458037422299999 ], [ 114.283575151899996, 22.463455675500001 ], [ 114.283579302299998, 22.468873925 ], [ 114.276292052100004, 22.4688785827 ], [ 114.2762881851, 22.463460332 ], [ 114.2690012164, 22.4634646594 ], [ 114.2689976339, 22.458046403899999 ], [ 114.261710946799994, 22.4580504011 ], [ 114.261707648500007, 22.4526321409 ], [ 114.254421243, 22.452635808099998 ], [ 114.254418228800006, 22.447217543400001 ], [ 114.25, 22.447219567103602 ], [ 114.25, 22.5 ], [ 114.334625311304322, 22.5 ], [ 114.334620687699996, 22.49592324 ], [ 114.327332036100003, 22.495930211600001 ], [ 114.3273261768, 22.490511989400002 ], [ 114.320037806200006, 22.4905186296 ], [ 114.320032232399996, 22.485100402099999 ], [ 114.3273203193, 22.485093763599998 ], [ 114.334608403499999, 22.485086795699999 ], [ 114.334602264099999, 22.479668568099999 ], [ 114.341890061699999, 22.4796612727 ], [ 114.349177856300003, 22.479653647799999 ], [ 114.349184562900007, 22.485071871399999 ], [ 114.35, 22.485070981186364 ], [ 114.35, 22.474234516052729 ], [ 114.349171151799993, 22.474235420500001 ], [ 114.349164449300005, 22.468817189599999 ], [ 114.349157748899998, 22.463398955100001 ], [ 114.349151050499998, 22.4579807169 ], [ 114.341864389500003, 22.457988333799999 ], [ 114.341857976300005, 22.45257009 ], [ 114.341851565, 22.447151842499999 ], [ 114.341845155800002, 22.4417335915 ], [ 114.349130967500002, 22.441725980699999 ], [ 114.349137659799993, 22.447144229799999 ], [ 114.349144354100005, 22.452562475200001 ], [ 114.35, 22.452561542352022 ], [ 114.35, 22.4 ], [ 114.25, 22.4 ], [ 114.25, 22.436383023010499 ] ], [ [ 114.3127441428, 22.485106711 ], [ 114.312738854299994, 22.479688478100002 ], [ 114.3200266602, 22.479682170899999 ], [ 114.320032232399996, 22.485100402099999 ], [ 114.3127441428, 22.485106711 ] ], [ [ 114.305451045799998, 22.479694456 ], [ 114.305446042400007, 22.474276217900002 ], [ 114.312733567400002, 22.474270241700001 ], [ 114.312738854299994, 22.479688478100002 ], [ 114.305451045799998, 22.479694456 ] ], [ [ 114.298158515099999, 22.4742818649 ], [ 114.290870985500007, 22.474287182499999 ], [ 114.290866550499999, 22.468868938 ], [ 114.298153796600005, 22.468863621699999 ], [ 114.3054410405, 22.468857976300001 ], [ 114.305446042400007, 22.474276217900002 ], [ 114.298158515099999, 22.4742818649 ] ], [ [ 114.276261149, 22.425532475299999 ], [ 114.283546134900007, 22.4255278274 ], [ 114.283550276400007, 22.4309461022 ], [ 114.276265007800006, 22.430950751400001 ], [ 114.276261149, 22.425532475299999 ] ] ], [ [ [ 114.349197982099994, 22.495908307800001 ], [ 114.349203051354976, 22.5 ], [ 114.35, 22.5 ], [ 114.35, 22.495907431842138 ], [ 114.349197982099994, 22.495908307800001 ] ] ] ] } },
{ "type": "Feature", "properties": { "region_id": "HK_22.55000_114.10000", "piece_area_m2": 48376240.939479209, "city": "HK", "lat_center": 22.55, "lon_center": 114.1, "dlat": 0.1, "dlon": 0.099999999999994316, "cell_area_m2": 134178931.25865391, "land_area_m2": 48376240.939479209, "land_fraction": 0.36053529779742655 }, "geometry": { "type": "Polygon", "coordinates": [ [ [ 114.15, 22.5 ], [ 114.05, 22.5 ], [ 114.05, 22.506787003541476 ], [ 114.050352601300006, 22.506787288400002 ], [ 114.050347672300006, 22.512205504600001 ], [ 114.057637186, 22.512211065 ], [ 114.057632539599993, 22.517629279 ], [ 114.064922339600002, 22.517634510899999 ], [ 114.064917976, 22.523052722700001 ], [ 114.072208062399994, 22.523057625900002 ], [ 114.0722039817, 22.528475835399998 ], [ 114.072199899699996, 22.5338940412 ], [ 114.079490556799996, 22.533898616799998 ], [ 114.079486758100003, 22.539316820300002 ], [ 114.086777701399996, 22.539321066700001 ], [ 114.094068646500006, 22.5393249828 ], [ 114.101359593200002, 22.5393285685 ], [ 114.108650541299994, 22.539331823800001 ], [ 114.115941490699996, 22.5393347487 ], [ 114.123232441200003, 22.539337343300001 ], [ 114.123230348700005, 22.544755548600001 ], [ 114.130521584799993, 22.5447578134 ], [ 114.137812821799997, 22.544759747800001 ], [ 114.145104059600001, 22.5447613517 ], [ 114.145102820399998, 22.550179555 ], [ 114.1451015807, 22.555597754699999 ], [ 114.15, 22.555598610602431 ], [ 114.15, 22.5 ] ] ] } },
{ "type": "Feature", "properties": { "region_id": "HK_22.55000_114.20000", "piece_area_m2": 77564061.421558902, "city": "HK", "lat_center": 22.55, "lon_center": 114.2, "dlat": 0.1, "dlon": 0.099999999999994316, "cell_area_m2": 134178931.25860901, "land_area_m2": 77564061.421558902, "land_fraction": 0.57806438532489313 }, "geometry": { "type": "Polygon", "coordinates": [ [ [ 114.25, 22.5 ], [ 114.15, 22.5 ], [ 114.15, 22.555598610602431 ], [ 114.152393388500002, 22.5555990288 ], [ 114.152392433399996, 22.561017225200001 ], [ 114.1596845264, 22.561018168899999 ], [ 114.159683855899999, 22.566436362 ], [ 114.166976234200007, 22.566436975199998 ], [ 114.174268612800006, 22.566437257600001 ], [ 114.174268713499998, 22.561019064300002 ], [ 114.1815608072, 22.561019015799999 ], [ 114.188852900800001, 22.561018636699998 ], [ 114.196144994299999, 22.561017926800002 ], [ 114.203437087400005, 22.561016886099999 ], [ 114.21072918, 22.561015514800001 ], [ 114.218021272, 22.561013812700001 ], [ 114.225313363300003, 22.561011779899999 ], [ 114.225311470199998, 22.5555935848 ], [ 114.225309577600001, 22.550175386 ], [ 114.232601098499998, 22.550173023700001 ], [ 114.232598921800005, 22.5447548219 ], [ 114.239890157, 22.544752129799999 ], [ 114.239892618300004, 22.5501703308 ], [ 114.239895080300002, 22.555588528299999 ], [ 114.247186883699996, 22.555585504100002 ], [ 114.247184136900003, 22.550167307399999 ], [ 114.25, 22.550166012179439 ], [ 114.25, 22.5 ] ], [ [ 114.210721245100004, 22.528506283799999 ], [ 114.218011629499998, 22.528504584299998 ], [ 114.218013235399994, 22.533922798100001 ], [ 114.210722566599998, 22.533924498 ], [ 114.210721245100004, 22.528506283799999 ] ], [ [ 114.225303903400004, 22.5339207679 ], [ 114.232594570499998, 22.5339184075 ], [ 114.232596745799995, 22.539336616500002 ], [ 114.225305794199997, 22.5393389776 ], [ 114.218014841799999, 22.539341008299999 ], [ 114.218013235399994, 22.533922798100001 ], [ 114.225303903400004, 22.5339207679 ] ] ] } },
{ "type": "Feature", "properties": { "region_id": "HK_22.55000_114.30000", "piece_area_m2": 53777046.632238738, "city": "HK", "lat_center": 22.55, "lon_center": 114.3, "dlat": 0.1, "dlon": 0.099999999999994316, "cell_area_m2": 134178931.25863145, "land_area_m2": 53777046.632238738, "land_fraction": 0.40078607071763639 }, "geometry": { "type": "MultiPolygon", "coordinates": [ [ [ [ 114.349203051354976, 22.5 ], [ 114.349204694799994, 22.501326520599999 ], [ 114.35, 22.501325651778384 ], [ 114.35, 22.5 ], [ 114.349203051354976, 22.5 ] ] ], [ [ [ 114.254475654299995, 22.5501639535 ], [ 114.254478685799995, 22.555582149199999 ], [ 114.261770486499998, 22.5555784638 ], [ 114.2690622856, 22.555574447600002 ], [ 114.276354083, 22.555570100899999 ], [ 114.276350197300005, 22.5501519082 ], [ 114.276346312699999, 22.544733712 ], [ 114.2690550847, 22.544738056500002 ], [ 114.269051485899993, 22.539319855399999 ], [ 114.276342429300001, 22.5393155121 ], [ 114.276338547099996, 22.533897308499999 ], [ 114.283629204299999, 22.533892636 ], [ 114.283633371, 22.539310838399999 ], [ 114.283637538899995, 22.544729037 ], [ 114.283641708100006, 22.550147232099999 ], [ 114.283645878599998, 22.555565423499999 ], [ 114.290937672200002, 22.555560415399999 ], [ 114.298229463699997, 22.555555076699999 ], [ 114.305521253, 22.555549407400001 ], [ 114.312813039800005, 22.5555434075 ], [ 114.320104824200001, 22.555537076899999 ], [ 114.320099230099999, 22.550118892899999 ], [ 114.327390727, 22.550112233499998 ], [ 114.3273848499, 22.5446940476 ], [ 114.320093637599996, 22.5447007054 ], [ 114.312802422600001, 22.544707032600002 ], [ 114.312797116400006, 22.539288839699999 ], [ 114.320088046799995, 22.539282514100002 ], [ 114.327378974599995, 22.5392758582 ], [ 114.327373101099994, 22.533857665100001 ], [ 114.327367229299995, 22.5284394683 ], [ 114.327361359299999, 22.523021268 ], [ 114.327355491099993, 22.517603064 ], [ 114.327349624700005, 22.512184856299999 ], [ 114.334639128199996, 22.512177879199999 ], [ 114.341928628700003, 22.5121705721 ], [ 114.341922196, 22.506752364600001 ], [ 114.341915765300001, 22.5013341535 ], [ 114.334626832699996, 22.501341456700001 ], [ 114.334625311304322, 22.5 ], [ 114.25, 22.5 ], [ 114.25, 22.550166012179439 ], [ 114.254475654299995, 22.5501639535 ] ], [ [ 114.290906514, 22.517633008499999 ], [ 114.283616711799993, 22.5176380073 ], [ 114.283612550100003, 22.512219790500001 ], [ 114.290902068299999, 22.5122147929 ], [ 114.290906514, 22.517633008499999 ] ], [ [ 114.298196314199998, 22.5176276796 ], [ 114.305486112099999, 22.517622020699999 ], [ 114.305491127699995, 22.523040229700001 ], [ 114.305496144800003, 22.528458435099999 ], [ 114.298205778300002, 22.528464097 ], [ 114.298201045499994, 22.523045890100001 ], [ 114.290910961199998, 22.523051220399999 ], [ 114.290906514, 22.517633008499999 ], [ 114.298196314199998, 22.5176276796 ] ] ], [ [ [ 114.334669899600001, 22.539268871800001 ], [ 114.327378974599995, 22.5392758582 ], [ 114.3273848499, 22.5446940476 ], [ 114.334676059499998, 22.544687059499999 ], [ 114.334669899600001, 22.539268871800001 ] ] ] ] } }
]
}
