{
"type": "FeatureCollection",
"name": "grid_HCM",
"crs": { "type": "name", "properties": { "name": "urn:ogc:def:crs:OGC:1.3:CRS84" } },
"features": [
{ "type": "Feature", "properties": { "region_id": "HCM_11.15000_106.30000", "city": "HCM", "lat_center": 11.15, "lon_center": 106.3, "dlat": 0.1, "dlon": 0.1 }, "geometry": { "type": "Polygon", "coordinates": [ [ [ 106.35, 11.1 ], [ 106.35, 11.2 ], [ 106.25, 11.2 ], [ 106.25, 11.1 ], [ 106.35, 11.1 ] ] ] } },
{ "type": "Feature", "properties": { "region_id": "HCM_11.15000_106.40000", "city": "HCM", "lat_center": 11.15, "lon_center": 106.4, "dlat": 0.1, "dlon": 0.1 }, "geometry": { "type": "Polygon", "coordinates": [ [ [ 106.45, 11.1 ], [ 106.45, 11.2 ], [ 106.35, 11.2 ], [ 106.35, 11.1 ], [ 106.45, 11.1 ] ] ] } },
{ "type": "Feature", "properties": { "region_id": "HCM_11.15000_106.50000", "city": "HCM", "lat_center": 11.15, "lon_center": 106.5, "dlat": 0.1, "dlon": 0.1 }, "geometry": { "type": "Polygon", "coordinates": [ [ [ 106.55, 11.1 ], [ 106.55, 11.2 ], [ 106.45, 11.2 ], [ 106.45, 11.1 ], [ 106.55, 11.1 ] ] ] } },
{ "type": "Feature", "properties": { "region_id": "HCM_11.15000_106.60000", "city": "HCM", "lat_center": 11.15, "lon_center": 106.6, "dlat": 0.1, "dlon": 0.1 }, "geometry": { "type": "Polygon", "coordinates": [ [ [ 106.65, 11.1 ], [ 106.65, 11.2 ], [ 106.55, 11.2 ], [ 106.55, 11.1 ], [ 106.65, 11.1 ] ] ] } },
{ "type": "Feature", "properties": { "region_id": "HCM_11.15000_106.70000", "city": "HCM", "lat_center": 11.15, "lon_center": 106.7, "dlat": 0.1, "dlon": 0.1 }, "geometry": { "type": "Polygon", "coordinates": [ [ [ 106.75, 11.1 ], [ 106.75, 11.2 ], [ 106.65, 11.2 ], [ 106.65, 11.1 ], [ 106.75, 11.1 ] ] ] } },
{ "type": "Feature", "properties": { "region_id": "HCM_11.15000_106.80000", "city": "HCM", "lat_center": 11.15, "lon_center": 106.8, "dlat": 0.1, "dlon": 0.1 }, "geometry": { "type": "Polygon", "coordinates": [ [ [ 106.85, 11.1 ], [ 106.85, 11.2 ], [ 106.75, 11.2 ], [ 106.75, 11.1 ], [ 106.85, 11.1 ] ] ] } },
{ "type": "Feature", "properties": { "region_id": "HCM_11.15000_106.90000", "city": "HCM", "lat_center": 11.15, "lon_center": 106.9, "dlat": 0.1, "dlon": 0.1 }, "geometry": { "type": "Polygon", "coordinates": [ [ [ 106.95, 11.1 ], [ 106.95, 11.2 ], [ 106.85, 11.2 ], [ 106.85, 11.1 ], [ 106.95, 11.1 ] ] ] } },
{ "type": "Feature", "properties": { "region_id": "HCM_11.05000_106.30000", "city": "HCM", "lat_center": 11.05, "lon_center": 106.3, "dlat": 0.1, "dlon": 0.1 }, "geometry": { "type": "Polygon", "coordinates": [ [ [ 106.35, 11.0 ], [ 106.35, 11.1 ], [ 106.25, 11.1 ], [ 106.25, 11.0 ], [ 106.35, 11.0 ] ] ] } },
{ "type": "Feature", "properties": { "region_id": "HCM_11.05000_106.40000", "city": "HCM", "lat_center": 11.05, "lon_center": 106.4, "dlat": 0.1, "dlon": 0.1 }, "geometry": { "type": "Polygon", "coordinates": [ [ [ 106.45, 11.0 ], [ 106.45, 11.1 ], [ 106.35, 11.1 ], [ 106.35, 11.0 ], [ 106.45, 11.0 ] ] ] } },
{ "type": "Feature", "properties": { "region_id": "HCM_11.05000_106.50000", "city": "HCM", "lat_center": 11.05, "lon_center": 106.5, "dlat": 0.1, "dlon": 0.1 }, "geometry": { "type": "Polygon", "coordinates": [ [ [ 106.55, 11.0 ], [ 106.55, 11.1 ], [ 106.45, 11.1 ], [ 106.45, 11.0 ], [ 106.55, 11.0 ] ] ] } },
{ "type": "Feature", "properties": { "region_id": "HCM_11.05000_106.60000", "city": "HCM", "lat_center": 11.05, "lon_center": 106.6, "dlat": 0.1, "dlon": 0.1 }, "geometry": { "type": "Polygon", "coordinates": [ [ [ 106.65, 11.0 ], [ 106.65, 11.1 ], [ 106.55, 11.1 ], [ 106.55, 11.0 ], [ 106.65, 11.0 ] ] ] } },
{ "type": "Feature", "properties": { "region_id": "HCM_11.05000_106.70000", "city": "HCM", "lat_center": 11.05, "lon_center": 106.7, "dlat": 0.1, "dlon": 0.1 }, "geometry": { "type": "Polygon", "coordinates": [ [ [ 106.75, 11.0 ], [ 106.75, 11.1 ], [ 106.65, 11.1 ], [ 106.65, 11.0 ], [ 106.75, 11.0 ] ] ] } },
{ "type": "Feature", "properties": { "region_id": "HCM_11.05000_106.80000", "city": "HCM", "lat_center": 11.05, "lon_center": 106.8, "dlat": 0.1, "dlon": 0.1 }, "geometry": { "type": "Polygon", "coordinates": [ [ [ 106.85, 11.0 ], [ 106.85, 11.1 ], [ 106.75, 11.1 ], [ 106.75, 11.0 ], [ 106.85, 11.0 ] ] ] } },
{ "type": "Feature", "properties": { "region_id": "HCM_11.05000_106.90000", "city": "HCM", "lat_center": 11.05, "lon_center": 106.9, "dlat": 0.1, "dlon": 0.1 }, "geometry": { "type": "Polygon", "coordinates": [ [ [ 106.95, 11.0 ], [ 106.95, 11.1 ], [ 106.85, 11.1 ], [ 106.85, 11.0 ], [ 106.95, 11.0 ] ] ] } },
{ "type": "Feature", "properties": { "region_id": "HCM_10.95000_106.30000", "city": "HCM", "lat_center": 10.95, "lon_center": 106.3, "dlat": 0.1, "dlon": 0.1 }, "geometry": { "type": "Polygon", "coordinates": [ [ [ 106.35, 10.9 ], [ 106.35, 11.0 ], [ 106.25, 11.0 ], [ 106.25, 10.9 ], [ 106.35, 10.9 ] ] ] } },
{ "type": "Feature", "properties": { "region_id": "HCM_10.95000_106.40000", "city": "HCM", "lat_center": 10.95, "lon_center": 106.4, "dlat": 0.1, "dlon": 0.1 }, "geometry": { "type": "Polygon", "coordinates": [ [ [ 106.45, 10.9 ], [ 106.45, 11.0 ], [ 106.35, 11.0 ], [ 106.35, 10.9 ], [ 106.45, 10.9 ] ] ] } },
{ "type": "Feature", "properties": { "region_id": "HCM_10.95000_106.50000", "city": "HCM", "lat_center": 10.95, "lon_center": 106.5, "dlat": 0.1, "dlon": 0.1 }, "geometry": { "type": "Polygon", "coordinates": [ [ [ 106.55, 10.9 ], [ 106.55, 11.0 ], [ 106.45, 11.0 ], [ 106.45, 10.9 ], [ 106.55, 10.9 ] ] ] } },
{ "type": "Feature", "properties": { "region_id": "HCM_10.95000_106.60000", "city": "HCM", "lat_center": 10.95, "lon_center": 106.6, "dlat": 0.1, "dlon": 0.1 }, "geometry": { "type": "Polygon", "coordinates": [ [ [ 106.65, 10.9 ], [ 106.65, 11.0 ], [ 106.55, 11.0 ], [ 106.55, 10.9 ], [ 106.65, 10.9 ] ] ] } },
{ "type": "Feature", "properties": { "region_id": "HCM_10.95000_106.70000", "city": "HCM", "lat_center": 10.95, "lon_center": 106.7, "dlat": 0.1, "dlon": 0.1 }, "geometry": { "type": "Polygon", "coordinates": [ [ [ 106.75, 10.9 ], [ 106.75, 11.0 ], [ 106.65, 11.0 ], [ 106.65, 10.9 ], [ 106.75, 10.9 ] ] ] } },
{ "type": "Feature", "properties": { "region_id": "HCM_10.95000_106.80000", "city": "HCM", "lat_center": 10.95, "lon_center": 106.8, "dlat": 0.1, "dlon": 0.1 }, "geometry": { "type": "Polygon", "coordinates": [ [ [ 106.85, 10.9 ], [ 106.85, 11.0 ], [ 106.75, 11.0 ], [ 106.75, 10.9 ], [ 106.85, 10.9 ] ] ] } },
{ "type": "Feature", "properties": { "region_id": "HCM_10.95000_106.90000", "city": "HCM", "lat_center": 10.95, "lon_center": 106.9, "dlat": 0.1, "dlon": 0.1 }, "geometry": { "type": "Polygon", "coordinates": [ [ [ 106.95, 10.9 ], [ 106.95, 11.0 ], [ 106.85, 11.0 ], [ 106.85, 10.9 ], [ 106.95, 10.9 ] ] ] } },
{ "type": "Feature", "properties": { "region_id": "HCM_10.85000_106.30000", "city": "HCM", "lat_center": 10.85, "lon_center": 106.3, "dlat": 0.1, "dlon": 0.1 }, "geometry": { "type": "Polygon", "coordinates": [ [ [ 106.35, 10.8 ], [ 106.35, 10.9 ], [ 106.25, 10.9 ], [ 106.25, 10.8 ], [ 106.35, 10.8 ] ] ] } },
{ "type": "Feature", "properties": { "region_id": "HCM_10.85000_106.40000", "city": "HCM", "lat_center": 10.85, "lon_center": 106.4, "dlat": 0.1, "dlon": 0.1 }, "geometry": { "type": "Polygon", "coordinates": [ [ [ 106.45, 10.8 ], [ 106.45, 10.9 ], [ 106.35, 10.9 ], [ 106.35, 10.8 ], [ 106.45, 10.8 ] ] ] } },
{ "type": "Feature", "properties": { "region_id": "HCM_10.85000_106.50000", "city": "HCM", "lat_center": 10.85, "lon_center": 106.5, "dlat": 0.1, "dlon": 0.1 }, "geometry": { "type": "Polygon", "coordinates": [ [ [ 106.55, 10.8 ], [ 106.55, 10.9 ], [ 106.45, 10.9 ], [ 106.45, 10.8 ], [ 106.55, 10.8 ] ] ] } },
{ "type": "Feature", "properties": { "region_id": "HCM_10.85000_106.60000", "city": "HCM", "lat_center": 10.85, "lon_center": 106.6, "dlat": 0.1, "dlon": 0.1 }, "geometry": { "type": "Polygon", "coordinates": [ [ [ 106.65, 10.8 ], [ 106.65, 10.9 ], [ 106.55, 10.9 ], [ 106.55, 10.8 ], [ 106.65, 10.8 ] ] ] } },
{ "type": "Feature", "properties": { "region_id": "HCM_10.85000_106.70000", "city": "HCM", "lat_center": 10.85, "lon_center": 106.7, "dlat": 0.1, "dlon": 0.1 }, "geometry": { "type": "Polygon", "coordinates": [ [ [ 106.75, 10.8 ], [ 106.75, 10.9 ], [ 106.65, 10.9 ], [ 106.65, 10.8 ], [ 106.75, 10.8 ] ] ] } },
{ "type": "Feature", "properties": { "region_id": "HCM_10.85000_106.80000", "city": "HCM", "lat_center": 10.85, "lon_center": 106.8, "dlat": 0.1, "dlon": 0.1 }, "geometry": { "type": "Polygon", "coordinates": [ [ [ 106.85, 10.8 ], [ 106.85, 10.9 ], [ 106.75, 10.9 ], [ 106.75, 10.8 ], [ 106.85, 10.8 ] ] ] } },
{ "type": "Feature", "properties": { "region_id": "HCM_10.85000_106.90000", "city": "HCM", "lat_center": 10.85, "lon_center": 106.9, "dlat": 0.1, "dlon": 0.1 }, "geometry": { "type": "Polygon", "coordinates": [ [ [ 106.95, 10.8 ], [ 106.95, 10.9 ], [ 106.85, 10.9 ], [ 106.85, 10.8 ], [ 106.95, 10.8 ] ] ] } },
{ "type": "Feature", "properties": { "region_id": "HCM_10.75000_106.30000", "city": "HCM", "lat_center": 10.75, "lon_center": 106.3, "dlat": 0.1, "dlon": 0.1 }, "geometry": { "type": "Polygon", "coordinates": [ [ [ 106.35, 10.7 ], [ 106.35, 10.8 ], [ 106.25, 10.8 ], [ 106.25, 10.7 ], [ 106.35, 10.7 ] ] ] } },
{ "type": "Feature", "properties": { "region_id": "HCM_10.75000_106.40000", "city": "HCM", "lat_center": 10.75, "lon_center": 106.4, "dlat": 0.1, "dlon": 0.1 }, "geometry": { "type": "Polygon", "coordinates": [ [ [ 106.45, 10.7 ], [ 106.45, 10.8 ], [ 106.35, 10.8 ], [ 106.35, 10.7 ], [ 106.45, 10.7 ] ] ] } },
{ "type": "Feature", "properties": { "region_id": "HCM_10.75000_106.50000", "city": "HCM", "lat_center": 10.75, "lon_center": 106.5, "dlat": 0.1, "dlon": 0.1 }, "geometry": { "type": "Polygon", "coordinates": [ [ [ 106.55, 10.7 ], [ 106.55, 10.8 ], [ 106.45, 10.8 ], [ 106.45, 10.7 ], [ 106.55, 10.7 ] ] ] } },
{ "type": "Feature", "properties": { "region_id": "HCM_10.75000_106.60000", "city": "HCM", "lat_center": 10.75, "lon_center": 106.6, "dlat": 0.1, "dlon": 0.1 }, "geometry": { "type": "Polygon", "coordinates": [ [ [ 106.65, 10.7 ], [ 106.65, 10.8 ], [ 106.55, 10.8 ], [ 106.55, 10.7 ], [ 106.65, 10.7 ] ] ] } },
{ "type": "Feature", "properties": { "region_id": "HCM_10.75000_106.70000", "city": "HCM", "lat_center": 10.75, "lon_center": 106.7, "dlat": 0.1, "dlon": 0.1 }, "geometry": { "type": "Polygon", "coordinates": [ [ [ 106.75, 10.7 ], [ 106.75, 10.8 ], [ 106.65, 10.8 ], [ 106.65, 10.7 ], [ 106.75, 10.7 ] ] ] } },
{ "type": "Feature", "properties": { "region_id": "HCM_10.75000_106.80000", "city": "HCM", "lat_center": 10.75, "lon_center": 106.8, "dlat": 0.1, "dlon": 0.1 }, "geometry": { "type": "Polygon", "coordinates": [ [ [ 106.85, 10.7 ], [ 106.85, 10.8 ], [ 106.75, 10.8 ], [ 106.75, 10.7 ], [ 106.85, 10.7 ] ] ] } },
{ "type": "Feature", "properties": { "region_id": "HCM_10.75000_106.90000", "city": "HCM", "lat_center": 10.75, "lon_center": 106.9, "dlat": 0.1, "dlon": 0.1 }, "geometry": { "type": "Polygon", "coordinates": [ [ [ 106.95, 10.7 ], [ 106.95, 10.8 ], [ 106.85, 10.8 ], [ 106.85, 10.7 ], [ 106.95, 10.7 ] ] ] } },
{ "type": "Feature", "properties": { "region_id": "HCM_10.65000_106.30000", "city": "HCM", "lat_center": 10.65, "lon_center": 106.3, "dlat": 0.1, "dlon": 0.1 }, "geometry": { "type": "Polygon", "coordinates": [ [ [ 106.35, 10.6 ], [ 106.35, 10.7 ], [ 106.25, 10.7 ], [ 106.25, 10.6 ], [ 106.35, 10.6 ] ] ] } },
{ "type": "Feature", "properties": { "region_id": "HCM_10.65000_106.40000", "city": "HCM", "lat_center": 10.65, "lon_center": 106.4, "dlat": 0.1, "dlon": 0.1 }, "geometry": { "type": "Polygon", "coordinates": [ [ [ 106.45, 10.6 ], [ 106.45, 10.7 ], [ 106.35, 10.7 ], [ 106.35, 10.6 ], [ 106.45, 10.6 ] ] ] } },
{ "type": "Feature", "properties": { "region_id": "HCM_10.65000_106.50000", "city": "HCM", "lat_center": 10.65, "lon_center": 106.5, "dlat": 0.1, "dlon": 0.1 }, "geometry": { "type": "Polygon", "coordinates": [ [ [ 106.55, 10.6 ], [ 106.55, 10.7 ], [ 106.45, 10.7 ], [ 106.45, 10.6 ], [ 106.55, 10.6 ] ] ] } },
{ "type": "Feature", "properties": { "region_id": "HCM_10.65000_106.60000", "city": "HCM", "lat_center": 10.65, "lon_center": 106.6, "dlat": 0.1, "dlon": 0.1 }, "geometry": { "type": "Polygon", "coordinates": [ [ [ 106.65, 10.6 ], [ 106.65, 10.7 ], [ 106.55, 10.7 ], [ 106.55, 10.6 ], [ 106.65, 10.6 ] ] ] } },
{ "type": "Feature", "properties": { "region_id": "HCM_10.65000_106.70000", "city": "HCM", "lat_center": 10.65, "lon_center": 106.7, "dlat": 0.1, "dlon": 0.1 }, "geometry": { "type": "Polygon", "coordinates": [ [ [ 106.75, 10.6 ], [ 106.75, 10.7 ], [ 106.65, 10.7 ], [ 106.65, 10.6 ], [ 106.75, 10.6 ] ] ] } },
{ "type": "Feature", "properties": { "region_id": "HCM_10.65000_106.80000", "city": "HCM", "lat_center": 10.65, "lon_center": 106.8, "dlat": 0.1, "dlon": 0.1 }, "geometry": { "type": "Polygon", "coordinates": [ [ [ 106.85, 10.6 ], [ 106.85, 10.7 ], [ 106.75, 10.7 ], [ 106.75, 10.6 ], [ 106.85, 10.6 ] ] ] } },
{ "type": "Feature", "properties": { "region_id": "HCM_10.65000_106.90000", "city": "HCM", "lat_center": 10.65, "lon_center": 106.9, "dlat": 0.1, "dlon": 0.1 }, "geometry": { "type": "Polygon", "coordinates": [ [ [ 106.95, 10.6 ], [ 106.95, 10.7 ], [ 106.85, 10.7 ], [ 106.85, 10.6 ], [ 106.95, 10.6 ] ] ] } },
{ "type": "Feature", "properties": { "region_id": "HCM_10.55000_106.30000", "city": "HCM", "lat_center": 10.55, "lon_center": 106.3, "dlat": 0.1, "dlon": 0.1 }, "geometry": { "type": "Polygon", "coordinates": [ [ [ 106.35, 10.5 ], [ 106.35, 10.6 ], [ 106.25, 10.6 ], [ 106.25, 10.5 ], [ 106.35, 10.5 ] ] ] } },
{ "type": "Feature", "properties": { "region_id": "HCM_10.55000_106.40000", "city": "HCM", "lat_center": 10.55, "lon_center": 106.4, "dlat": 0.1, "dlon": 0.1 }, "geometry": { "type": "Polygon", "coordinates": [ [ [ 106.45, 10.5 ], [ 106.45, 10.6 ], [ 106.35, 10.6 ], [ 106.35, 10.5 ], [ 106.45, 10.5 ] ] ] } },
{ "type": "Feature", "properties": { "region_id": "HCM_10.55000_106.50000", "city": "HCM", "lat_center": 10.55, "lon_center": 106.5, "dlat": 0.1, "dlon": 0.1 }, "geometry": { "type": "Polygon", "coordinates": [ [ [ 106.55, 10.5 ], [ 106.55, 10.6 ], [ 106.45, 10.6 ], [ 106.45, 10.5 ], [ 106.55, 10.5 ] ] ] } },
{ "type": "Feature", "properties": { "region_id": "HCM_10.55000_106.60000", "city": "HCM", "lat_center": 10.55, "lon_center": 106.6, "dlat": 0.1, "dlon": 0.1 }, "geometry": { "type": "Polygon", "coordinates": [ [ [ 106.65, 10.5 ], [ 106.65, 10.6 ], [ 106.55, 10.6 ], [ 106.55, 10.5 ], [ 106.65, 10.5 ] ] ] } },
{ "type": "Feature", "properties": { "region_id": "HCM_10.55000_106.70000", "city": "HCM", "lat_center": 10.55, "lon_center": 106.7, "dlat": 0.1, "dlon": 0.1 }, "geometry": { "type": "Polygon", "coordinates": [ [ [ 106.75, 10.5 ], [ 106.75, 10.6 ], [ 106.65, 10.6 ], [ 106.65, 10.5 ], [ 106.75, 10.5 ] ] ] } },
{ "type": "Feature", "properties": { "region_id": "HCM_10.55000_106.80000", "city": "HCM", "lat_center": 10.55, "lon_center": 106.8, "dlat": 0.1, "dlon": 0.1 }, "geometry": { "type": "Polygon", "coordinates": [ [ [ 106.85, 10.5 ], [ 106.85, 10.6 ], [ 106.75, 10.6 ], [ 106.75, 10.5 ], [ 106.85, 10.5 ] ] ] } },
{ "type": "Feature", "properties": { "region_id": "HCM_10.55000_106.90000", "city": "HCM", "lat_center": 10.55, "lon_center": 106.9, "dlat": 0.1, "dlon": 0.1 }, "geometry": { "type": "Polygon", "coordinates": [ [ [ 106.95, 10.5 ], [ 106.95, 10.6 ], [ 106.85, 10.6 ], [ 106.85, 10.5 ], [ 106.95, 10.5 ] ] ] } }
]
}
