{
"type": "FeatureCollection",
"name": "hk_land_boundary",
"crs": { "type": "name", "properties": { "name": "urn:ogc:def:crs:OGC:1.3:CRS84" } },
"features": [
{ "type": "Feature", "properties": { "name": "Hong Kong land" }, "geometry": { "type": "MultiPolygon", "coordinates": [ [ [ [ 114.436762771299996, 22.549972676 ], [ 114.436752624500002, 22.544554527 ], [ 114.444043776, 22.544542582 ], [ 114.4440333477, 22.539124432600001 ], [ 114.4440229227, 22.5337062796 ], [ 114.436732340199995, 22.533718218200001 ], [ 114.429441753, 22.533729826599998 ], [ 114.429451609099999, 22.539147985900001 ], [ 114.422160732699993, 22.539159267 ], [ 114.422170307299993, 22.544577425699998 ], [ 114.422179884800002, 22.549995580699999 ], [ 114.422189465200006, 22.5554137321 ], [ 114.429481195600005, 22.555402442 ], [ 114.436772921200003, 22.555390821300001 ], [ 114.436762771299996, 22.549972676 ] ] ], [ [ [ 114.422036528, 22.468722873800001 ], [ 114.429323713200006, 22.4687116315 ], [ 114.429313896, 22.463293424900002 ], [ 114.422026994199996, 22.463304664199999 ], [ 114.422036528, 22.468722873800001 ] ] ], [ [ [ 113.832357916399999, 22.230137689300001 ], [ 113.839632645600005, 22.230152932799999 ], [ 113.839619684900001, 22.235571251900001 ], [ 113.839606720299997, 22.2409895674 ], [ 113.846882015, 22.2410044937 ], [ 113.846869326199993, 22.246422809599999 ], [ 113.854144906800002, 22.246437414300001 ], [ 113.854132493799995, 22.251855730500001 ], [ 113.846856633399995, 22.2518411219 ], [ 113.846843936699997, 22.2572594307 ], [ 113.846831236100002, 22.262677735800001 ], [ 113.854107656500005, 22.2626923523 ], [ 113.861384083, 22.2627066429 ], [ 113.861371938700003, 22.268124952200001 ], [ 113.868648651100003, 22.268138920799998 ], [ 113.868636783300005, 22.273557230200002 ], [ 113.861359790600005, 22.273543257899998 ], [ 113.854082803799997, 22.2735289596 ], [ 113.854070371700004, 22.278947257799999 ], [ 113.846793110600004, 22.278932629500002 ], [ 113.846780394299998, 22.284350920200001 ], [ 113.8540579358, 22.284365552499999 ], [ 113.861335483199994, 22.284379858499999 ], [ 113.861347638799998, 22.278961560100001 ], [ 113.868624911699996, 22.278975536099999 ], [ 113.875902190399998, 22.278989186 ], [ 113.875890595599998, 22.284407492 ], [ 113.883168160300002, 22.284420819400001 ], [ 113.883156842399998, 22.289839125299999 ], [ 113.890434693, 22.28985213 ], [ 113.890423652199999, 22.295270435799999 ], [ 113.890412607900004, 22.300688738 ], [ 113.890401560300006, 22.306107036699999 ], [ 113.883122867699996, 22.306094021500002 ], [ 113.883111535799998, 22.311512313 ], [ 113.875832567900005, 22.311498967599999 ], [ 113.875820951600005, 22.316917251900001 ], [ 113.868541708400002, 22.316903576200001 ], [ 113.868529807499996, 22.322321853199998 ], [ 113.875809331699998, 22.3223355326 ], [ 113.875797708199997, 22.327753809600001 ], [ 113.883077519099999, 22.327767165800001 ], [ 113.890357335399997, 22.327780195 ], [ 113.890346270699993, 22.3331984756 ], [ 113.897626373600005, 22.333211181300001 ], [ 113.904906481599994, 22.33322356 ], [ 113.904895976, 22.3386418437 ], [ 113.912176370300003, 22.338653898699999 ], [ 113.919456769700005, 22.338665626499999 ], [ 113.926737173800007, 22.338677027199999 ], [ 113.926746835700001, 22.333258734 ], [ 113.926756494599999, 22.327840437199999 ], [ 113.934036340899993, 22.327851504800002 ], [ 113.941316191799999, 22.3278622455 ], [ 113.948596047099997, 22.327872659200001 ], [ 113.955875906599999, 22.327882746 ], [ 113.955867372399993, 22.3333010542 ], [ 113.955858835499996, 22.338719358799999 ], [ 113.955850296, 22.344137659800001 ], [ 113.955841753900003, 22.3495559572 ], [ 113.9485607692, 22.349545859500001 ], [ 113.948551942899996, 22.354964150600001 ], [ 113.941270680900004, 22.354953722800001 ], [ 113.933989423300005, 22.3549429676 ], [ 113.933980031, 22.360361249299999 ], [ 113.926698496399993, 22.3603501638 ], [ 113.919416966399993, 22.3603387508 ], [ 113.919407007900006, 22.3657570228 ], [ 113.912125201, 22.365745279199999 ], [ 113.912114957599997, 22.3711635445 ], [ 113.9121047111, 22.376581806099999 ], [ 113.912094461400002, 22.382000064100001 ], [ 113.919377113899998, 22.3820118173 ], [ 113.919367143100004, 22.387430074800001 ], [ 113.912084208600007, 22.3874183185 ], [ 113.912073952599997, 22.392836569300002 ], [ 113.9120636934, 22.3982548165 ], [ 113.904780199499996, 22.398242725799999 ], [ 113.904769654899994, 22.403660966099999 ], [ 113.897485883800002, 22.403648544 ], [ 113.897475053500003, 22.4090667774 ], [ 113.897464219900002, 22.414485007100001 ], [ 113.904748555899999, 22.414497435800001 ], [ 113.904738001499993, 22.419915665200001 ], [ 113.912022625099993, 22.419927768899999 ], [ 113.912012350099999, 22.425345998 ], [ 113.919297261300002, 22.425357776399998 ], [ 113.919287265899996, 22.430776005 ], [ 113.9265724646, 22.430787458 ], [ 113.933857668, 22.4307985823 ], [ 113.941142875899999, 22.430809378100001 ], [ 113.941133725900002, 22.436227612 ], [ 113.941124573, 22.4416458424 ], [ 113.948410351, 22.441656315100001 ], [ 113.948401478299999, 22.4470745446 ], [ 113.9483926029, 22.452492770500001 ], [ 113.955678951300001, 22.45250292 ], [ 113.955670356300004, 22.457921144899998 ], [ 113.962956992, 22.457930968100001 ], [ 113.962948677599996, 22.463349192100001 ], [ 113.955661758600002, 22.463339366300001 ], [ 113.955653158299995, 22.468757584 ], [ 113.955644555299997, 22.474175798099999 ], [ 113.948357073699995, 22.474165637700001 ], [ 113.948348184599993, 22.479583845400001 ], [ 113.955635949699996, 22.479594008500001 ], [ 113.962923718900001, 22.4796038422 ], [ 113.962932041100004, 22.474185629099999 ], [ 113.970219530799994, 22.4741951309 ], [ 113.970227566899993, 22.468776911599999 ], [ 113.970235600500004, 22.463358688700001 ], [ 113.977522527399998, 22.463367856200001 ], [ 113.977514777099998, 22.468786081600001 ], [ 113.977507024399998, 22.474204303299999 ], [ 113.984794521799998, 22.4742131464 ], [ 113.984787050199998, 22.479631366900001 ], [ 113.992074834700006, 22.479639883 ], [ 113.992067644399995, 22.4850581022 ], [ 113.992060451900002, 22.490476317700001 ], [ 113.999348807100006, 22.490484508800002 ], [ 114.006637165699999, 22.4904923703 ], [ 114.013925527400005, 22.4904999022 ], [ 114.021213892199995, 22.490507104599999 ], [ 114.021207832599998, 22.495925324800002 ], [ 114.021201771199998, 22.501343541299999 ], [ 114.021195707900006, 22.506761754199999 ], [ 114.028484927199997, 22.506768632499998 ], [ 114.035774149299996, 22.506775181 ], [ 114.043063374, 22.506781399600001 ], [ 114.050352601300006, 22.506787288400002 ], [ 114.050347672300006, 22.512205504600001 ], [ 114.057637186, 22.512211065 ], [ 114.057632539599993, 22.517629279 ], [ 114.064922339600002, 22.517634510899999 ], [ 114.064917976, 22.523052722700001 ], [ 114.072208062399994, 22.523057625900002 ], [ 114.0722039817, 22.528475835399998 ], [ 114.072199899699996, 22.5338940412 ], [ 114.079490556799996, 22.533898616799998 ], [ 114.079486758100003, 22.539316820300002 ], [ 114.086777701399996, 22.539321066700001 ], [ 114.094068646500006, 22.5393249828 ], [ 114.101359593200002, 22.5393285685 ], [ 114.108650541299994, 22.539331823800001 ], [ 114.115941490699996, 22.5393347487 ], [ 114.123232441200003, 22.539337343300001 ], [ 114.123230348700005, 22.544755548600001 ], [ 114.130521584799993, 22.5447578134 ], [ 114.137812821799997, 22.544759747800001 ], [ 114.145104059600001, 22.5447613517 ], [ 114.145102820399998, 22.550179555 ], [ 114.1451015807, 22.555597754699999 ], [ 114.152393388500002, 22.5555990288 ], [ 114.152392433399996, 22.561017225200001 ], [ 114.1596845264, 22.561018168899999 ], [ 114.159683855899999, 22.566436362 ], [ 114.166976234200007, 22.566436975199998 ], [ 114.174268612800006, 22.566437257600001 ], [ 114.174268713499998, 22.561019064300002 ], [ 114.1815608072, 22.561019015799999 ], [ 114.188852900800001, 22.561018636699998 ], [ 114.196144994299999, 22.561017926800002 ], [ 114.203437087400005, 22.561016886099999 ], [ 114.21072918, 22.561015514800001 ], [ 114.218021272, 22.561013812700001 ], [ 114.225313363300003, 22.561011779899999 ], [ 114.225311470199998, 22.5555935848 ], [ 114.225309577600001, 22.550175386 ], [ 114.232601098499998, 22.550173023700001 ], [ 114.232598921800005, 22.5447548219 ], [ 114.239890157, 22.544752129799999 ], [ 114.239892618300004, 22.5501703308 ], [ 114.239895080300002, 22.555588528299999 ], [ 114.247186883699996, 22.555585504100002 ], [ 114.247184136900003, 22.550167307399999 ], [ 114.254475654299995, 22.5501639535 ], [ 114.254478685799995, 22.555582149199999 ], [ 114.261770486499998, 22.5555784638 ], [ 114.2690622856, 22.555574447600002 ], [ 114.276354083, 22.555570100899999 ], [ 114.276350197300005, 22.5501519082 ], [ 114.276346312699999, 22.544733712 ], [ 114.2690550847, 22.544738056500002 ], [ 114.269051485899993, 22.539319855399999 ], [ 114.276342429300001, 22.5393155121 ], [ 114.276338547099996, 22.533897308499999 ], [ 114.283629204299999, 22.533892636 ], [ 114.283633371, 22.539310838399999 ], [ 114.283637538899995, 22.544729037 ], [ 114.283641708100006, 22.550147232099999 ], [ 114.283645878599998, 22.555565423499999 ], [ 114.290937672200002, 22.555560415399999 ], [ 114.298229463699997, 22.555555076699999 ], [ 114.305521253, 22.555549407400001 ], [ 114.312813039800005, 22.5555434075 ], [ 114.320104824200001, 22.555537076899999 ], [ 114.320099230099999, 22.550118892899999 ], [ 114.327390727, 22.550112233499998 ], [ 114.3273848499, 22.5446940476 ], [ 114.320093637599996, 22.5447007054 ], [ 114.312802422600001, 22.544707032600002 ], [ 114.312797116400006, 22.539288839699999 ], [ 114.320088046799995, 22.539282514100002 ], [ 114.327378974599995, 22.5392758582 ], [ 114.327373101099994, 22.533857665100001 ], [ 114.327367229299995, 22.5284394683 ], [ 114.327361359299999, 22.523021268 ], [ 114.327355491099993, 22.517603064 ], [ 114.327349624700005, 22.512184856299999 ], [ 114.334639128199996, 22.512177879199999 ], [ 114.341928628700003, 22.5121705721 ], [ 114.341922196, 22.506752364600001 ], [ 114.341915765300001, 22.5013341535 ], [ 114.334626832699996, 22.501341456700001 ], [ 114.334620687699996, 22.49592324 ], [ 114.327332036100003, 22.495930211600001 ], [ 114.3273261768, 22.490511989400002 ], [ 114.320037806200006, 22.4905186296 ], [ 114.320032232399996, 22.485100402099999 ], [ 114.3273203193, 22.485093763599998 ], [ 114.334608403499999, 22.485086795699999 ], [ 114.334602264099999, 22.479668568099999 ], [ 114.341890061699999, 22.4796612727 ], [ 114.349177856300003, 22.479653647799999 ], [ 114.349184562900007, 22.485071871399999 ], [ 114.356472637899998, 22.485063915 ], [ 114.356479630099997, 22.490482132899999 ], [ 114.356486624599995, 22.495900347199999 ], [ 114.349197982099994, 22.495908307800001 ], [ 114.349204694799994, 22.501326520599999 ], [ 114.3564936211, 22.501318557899999 ], [ 114.356500619800002, 22.506736764900001 ], [ 114.3637898267, 22.506728470199999 ], [ 114.371079030199994, 22.506719845700001 ], [ 114.371071463600003, 22.501301643200001 ], [ 114.363782544100005, 22.501310265400001 ], [ 114.363775263700006, 22.495892057 ], [ 114.363767985500004, 22.490473844899999 ], [ 114.371056337400006, 22.490465227200001 ], [ 114.371048777799999, 22.485047013799999 ], [ 114.378336842400003, 22.4850380689 ], [ 114.378329001400004, 22.479619854300001 ], [ 114.371041220400002, 22.479628796699998 ], [ 114.371033665300004, 22.474210576 ], [ 114.371026112600006, 22.468792351699999 ], [ 114.371018562100005, 22.463374123800001 ], [ 114.371011013900002, 22.457955892200001 ], [ 114.3710034681, 22.452537657 ], [ 114.370995924499994, 22.4471194182 ], [ 114.3709883832, 22.4417011757 ], [ 114.378274181500004, 22.441692249799999 ], [ 114.385559976, 22.441682995099999 ], [ 114.392845766600004, 22.4416734116 ], [ 114.4001315533, 22.441663499400001 ], [ 114.407417335800005, 22.441653258300001 ], [ 114.407408382300005, 22.4362350249 ], [ 114.407399431499996, 22.4308167879 ], [ 114.400114214699997, 22.430827023599999 ], [ 114.400105549399996, 22.425408780200002 ], [ 114.407390483499995, 22.425398547299999 ], [ 114.407381538099997, 22.419980303100001 ], [ 114.407372595599995, 22.414562055200001 ], [ 114.407363655699996, 22.409143803700001 ], [ 114.400079569300004, 22.409154028500001 ], [ 114.392795478799997, 22.409163925 ], [ 114.392787106399993, 22.403745664500001 ], [ 114.392778736599993, 22.398327400399999 ], [ 114.385495206800002, 22.398336963599998 ], [ 114.385487121799997, 22.3929186933 ], [ 114.392770369399997, 22.392909132700002 ], [ 114.392762004700003, 22.3874908614 ], [ 114.392753642499997, 22.382072586500001 ], [ 114.392745283, 22.376654307900001 ], [ 114.392736925899996, 22.371236025799998 ], [ 114.392728571399999, 22.36581774 ], [ 114.392720219500006, 22.360399450599999 ], [ 114.385438663299993, 22.360408995899999 ], [ 114.385430595599999, 22.354990700399998 ], [ 114.378149317199998, 22.354999915800001 ], [ 114.378141533399997, 22.349581614200002 ], [ 114.370860532799995, 22.3495904999 ], [ 114.370853032799999, 22.3441721923 ], [ 114.378133752, 22.344163308900001 ], [ 114.378125972899994, 22.338745000100001 ], [ 114.378118196299994, 22.3333266876 ], [ 114.378110422, 22.3279083716 ], [ 114.378102650100004, 22.322490051900001 ], [ 114.370823055800003, 22.3224989257 ], [ 114.370815567299999, 22.317080600099999 ], [ 114.378094880500001, 22.317071728599998 ], [ 114.378087113399999, 22.311653401699999 ], [ 114.378079348599996, 22.3062350712 ], [ 114.370800597100001, 22.3062439379 ], [ 114.363521842, 22.306252478099999 ], [ 114.363529045099995, 22.311670813300001 ], [ 114.356250005700005, 22.311679029099999 ], [ 114.348970963, 22.311686918199999 ], [ 114.341691917199995, 22.3116944806 ], [ 114.341698279799999, 22.317112818399998 ], [ 114.341704644299995, 22.322531152700002 ], [ 114.341711010699996, 22.327949483299999 ], [ 114.341717379100004, 22.3333678103 ], [ 114.334437206100006, 22.333375053800001 ], [ 114.334431118799998, 22.3279567248 ], [ 114.334425033499997, 22.3225383923 ], [ 114.33441895, 22.317120056099998 ], [ 114.327139617300006, 22.317126967 ], [ 114.319860281800004, 22.3171335511 ], [ 114.319854762, 22.311715207799999 ], [ 114.319849243899995, 22.3062968608 ], [ 114.327128017600003, 22.306290280199999 ], [ 114.3271222204, 22.300871931300001 ], [ 114.327116425, 22.295453578899998 ], [ 114.319838212700006, 22.295460156 ], [ 114.312559997700006, 22.295466406700001 ], [ 114.312554765200005, 22.290048047300001 ], [ 114.305276828399997, 22.29005397 ], [ 114.305271877899997, 22.284635605399998 ], [ 114.305266929, 22.279217237200001 ], [ 114.312544305, 22.279211317600002 ], [ 114.319821678500006, 22.279205071900002 ], [ 114.319816170400003, 22.273786703300001 ], [ 114.312539077300002, 22.273792947299999 ], [ 114.3125338511, 22.268374573500001 ], [ 114.312528626599999, 22.262956196 ], [ 114.305252091300005, 22.262962110899998 ], [ 114.305247148500001, 22.257543728200002 ], [ 114.297970890900004, 22.2575493157 ], [ 114.297966229500005, 22.252130928 ], [ 114.305242207099994, 22.252125342 ], [ 114.305237267199999, 22.2467069522 ], [ 114.297961569500004, 22.246712536699999 ], [ 114.297956911, 22.241294141699999 ], [ 114.297952253800005, 22.235875743200001 ], [ 114.290677113399994, 22.235880999300001 ], [ 114.283401970900002, 22.2358859299 ], [ 114.283406068600002, 22.2413043311 ], [ 114.2761306445, 22.241308937500001 ], [ 114.276134463600002, 22.246727336300001 ], [ 114.276138284, 22.252145731599999 ], [ 114.276142105399998, 22.257564123200002 ], [ 114.2688658398, 22.257568407400001 ], [ 114.268869382399998, 22.2629867966 ], [ 114.268872926, 22.268405182199999 ], [ 114.261596098499993, 22.268409142700001 ], [ 114.261592835, 22.262990756099999 ], [ 114.2615895725, 22.257572365800002 ], [ 114.261586311, 22.252153972 ], [ 114.261583050400006, 22.246735574599999 ], [ 114.254307341399993, 22.246739205200001 ], [ 114.254304361699994, 22.241320803200001 ], [ 114.254301382799994, 22.235902397699999 ], [ 114.261576532299998, 22.2358987689 ], [ 114.268851680200001, 22.2358948147 ], [ 114.268848143, 22.230476407499999 ], [ 114.261573274699998, 22.2304803607 ], [ 114.261570018100002, 22.225061948899999 ], [ 114.261566762499996, 22.219643533399999 ], [ 114.261563507899993, 22.214225114400001 ], [ 114.261560254299994, 22.2088066918 ], [ 114.261557001699998, 22.203388265600001 ], [ 114.2542835287, 22.203391888599999 ], [ 114.247010054300006, 22.2033951867 ], [ 114.239736578600002, 22.203398159799999 ], [ 114.2397389936, 22.208816588600001 ], [ 114.239741409399997, 22.214235013900002 ], [ 114.232467374099997, 22.214237663399999 ], [ 114.232469511199994, 22.219656085800001 ], [ 114.232471648900002, 22.2250745045 ], [ 114.225197053800002, 22.225076830199999 ], [ 114.2179224578, 22.225078830600001 ], [ 114.217920878900003, 22.219660410700001 ], [ 114.225195195500007, 22.219658410800001 ], [ 114.225193337700006, 22.214239987900001 ], [ 114.225191480500001, 22.208821561400001 ], [ 114.225189623899993, 22.2034031313 ], [ 114.225187767799994, 22.197984697599999 ], [ 114.225185912300006, 22.192566260300001 ], [ 114.217912991700004, 22.1925682575 ], [ 114.210640070400004, 22.19256993 ], [ 114.210641367899996, 22.197988368299999 ], [ 114.210642665799995, 22.203406803 ], [ 114.210643964, 22.208825234 ], [ 114.203370204799995, 22.2088265828 ], [ 114.196096445, 22.2088276066 ], [ 114.196097185100001, 22.2142460347 ], [ 114.196097925399997, 22.219664459200001 ], [ 114.188823606599996, 22.219665158200002 ], [ 114.188824067699997, 22.225083579300001 ], [ 114.196098665799994, 22.2250828801 ], [ 114.196099406499997, 22.2305012974 ], [ 114.188824528799998, 22.230501996800001 ], [ 114.181549650899996, 22.2305023708 ], [ 114.174274772900006, 22.230502419499999 ], [ 114.174274870900007, 22.225084002 ], [ 114.167000272500005, 22.225083725299999 ], [ 114.159725674399994, 22.225083123499999 ], [ 114.159725017300005, 22.230501540700001 ], [ 114.15245014, 22.230500613299998 ], [ 114.152449203100005, 22.2359190267 ], [ 114.145174046600005, 22.235917773499999 ], [ 114.137898890700001, 22.2359161949 ], [ 114.137897394099994, 22.2413346039 ], [ 114.130621959199999, 22.241332699299999 ], [ 114.130620182300007, 22.246751104200001 ], [ 114.130618404900005, 22.2521695055 ], [ 114.123342411199999, 22.2521672741 ], [ 114.123340353200007, 22.257585671099999 ], [ 114.123338294500002, 22.2630040646 ], [ 114.1233362352, 22.268422454500001 ], [ 114.116059402399998, 22.268419895299999 ], [ 114.116057062199999, 22.2738382808 ], [ 114.116054721300003, 22.279256662800002 ], [ 114.108777329, 22.279253776 ], [ 114.108774707, 22.284672153599999 ], [ 114.108772084099996, 22.290090527499999 ], [ 114.116050037299999, 22.290093416 ], [ 114.123327991599993, 22.290095978 ], [ 114.130605946900005, 22.2900982138 ], [ 114.130604165, 22.2955165863 ], [ 114.137882401799999, 22.2955184962 ], [ 114.145160639300002, 22.295520079700001 ], [ 114.145159418099993, 22.3009384496 ], [ 114.1524379369, 22.300939707 ], [ 114.152436996099993, 22.306358073599998 ], [ 114.152436054899994, 22.311776436599999 ], [ 114.152435113500005, 22.317194796 ], [ 114.145155752199997, 22.3171935375 ], [ 114.145156974499997, 22.3117751785 ], [ 114.137877894799999, 22.311773593600002 ], [ 114.130598815699997, 22.311771682100002 ], [ 114.130597031500002, 22.3171900402 ], [ 114.123317672400006, 22.317187801399999 ], [ 114.116038314400001, 22.3171852358 ], [ 114.116035967599998, 22.322603588900002 ], [ 114.108756329599998, 22.3226006957 ], [ 114.101476693, 22.3225974757 ], [ 114.094197057800002, 22.3225939288 ], [ 114.086917424099994, 22.322590055 ], [ 114.086913952200007, 22.3280084009 ], [ 114.0869104792, 22.333426743099999 ], [ 114.086907005100002, 22.338845081700001 ], [ 114.079626529600006, 22.338840877700001 ], [ 114.079622773099999, 22.344259211499999 ], [ 114.079619015399999, 22.349677541799998 ], [ 114.072337978899995, 22.349673008100002 ], [ 114.072342018, 22.344254679100001 ], [ 114.065061264899995, 22.3442498195 ], [ 114.065065584199999, 22.3388314882 ], [ 114.065069902100007, 22.333413153199999 ], [ 114.065074218600003, 22.327994814699998 ], [ 114.057794311400002, 22.3279896321 ], [ 114.057798907700004, 22.322571291399999 ], [ 114.057803502599995, 22.317152947 ], [ 114.057808096, 22.311734599099999 ], [ 114.057812688, 22.3063162475 ], [ 114.0505339069, 22.306310743899999 ], [ 114.050538778299995, 22.3008923903 ], [ 114.043260280300004, 22.300886561599999 ], [ 114.035981784800001, 22.300880406499999 ], [ 114.028703292, 22.300873924899999 ], [ 114.028709003800003, 22.295455572600002 ], [ 114.035987216, 22.2954620525 ], [ 114.043265430800005, 22.295468206 ], [ 114.050543648100003, 22.295474033 ], [ 114.050548516399999, 22.290055672099999 ], [ 114.057826455500006, 22.290061171200001 ], [ 114.065104396899997, 22.290066344 ], [ 114.065108702700002, 22.284647976599999 ], [ 114.0578310418, 22.284642805200001 ], [ 114.050553383199997, 22.284637307600001 ], [ 114.050558248499996, 22.279218939500002 ], [ 114.043280872699995, 22.279213117200001 ], [ 114.036003499299994, 22.279206968800001 ], [ 114.035998073200005, 22.284625333600001 ], [ 114.028720422099994, 22.2846188573 ], [ 114.028726128599999, 22.279200494200001 ], [ 114.0287318333, 22.273782127499999 ], [ 114.0287375363, 22.268363757199999 ], [ 114.028743237399993, 22.2629453833 ], [ 114.036019767499994, 22.262951852699999 ], [ 114.043296300099996, 22.262957996099999 ], [ 114.043291159199995, 22.268376373399999 ], [ 114.050567974499998, 22.268382192499999 ], [ 114.057844792200001, 22.268387685699999 ], [ 114.057849372800007, 22.2629693053 ], [ 114.057853952, 22.257550921299998 ], [ 114.057858529699999, 22.252132533699999 ], [ 114.0505825523, 22.252127045 ], [ 114.050587408499993, 22.246708655399999 ], [ 114.050592263200002, 22.241290262100001 ], [ 114.050597116399999, 22.2358718652 ], [ 114.043321980599998, 22.235866055500001 ], [ 114.036046847400002, 22.235859920399999 ], [ 114.028771716799994, 22.2358534599 ], [ 114.028766024500001, 22.241271851800001 ], [ 114.021490616899996, 22.241265063899998 ], [ 114.021484643, 22.246683450399999 ], [ 114.0214786672, 22.252101833200001 ], [ 114.021472689600003, 22.257520212500001 ], [ 114.014196445300001, 22.257513093299998 ], [ 114.014202702899993, 22.252094716 ], [ 114.014208958500006, 22.246676335 ], [ 114.006933277100003, 22.246668894100001 ], [ 114.006939810600002, 22.241250511600001 ], [ 114.006946342099994, 22.2358321255 ], [ 114.014221464, 22.235839562399999 ], [ 114.021496588900007, 22.235846673899999 ], [ 114.0215025591, 22.230428280200002 ], [ 114.021508527500004, 22.225009883 ], [ 114.028783096200002, 22.2250166653 ], [ 114.036057667600005, 22.2250231224 ], [ 114.036063075200005, 22.219604717900001 ], [ 114.036068481100003, 22.214186309900001 ], [ 114.043342496299999, 22.2141924383 ], [ 114.043347621199999, 22.208774025 ], [ 114.050621359700003, 22.208779826699999 ], [ 114.050626203799993, 22.203361408300001 ], [ 114.0433527446, 22.203355608100001 ], [ 114.043357866299999, 22.197937187600001 ], [ 114.036084688700001, 22.197931064199999 ], [ 114.028811513600004, 22.197924616 ], [ 114.028817191800002, 22.192506195299998 ], [ 114.021544298600006, 22.192499424 ], [ 114.014271408200003, 22.192492328 ], [ 114.014265172, 22.1979107449 ], [ 114.014258933799994, 22.203329158199999 ], [ 114.014252693700001, 22.208747567900001 ], [ 114.014246451600002, 22.214165974 ], [ 114.006972447699994, 22.214158545099998 ], [ 113.999698446899998, 22.214150791200002 ], [ 113.992424449500007, 22.214142712099999 ], [ 113.992431529300006, 22.208724312299999 ], [ 113.985157814600001, 22.208715910399999 ], [ 113.985150455400003, 22.2141343079 ], [ 113.977876465, 22.214125578699999 ], [ 113.9778688241, 22.2195439702 ], [ 113.977861181, 22.224962358199999 ], [ 113.970586635399997, 22.224953298900001 ], [ 113.970578710300003, 22.230371680800001 ], [ 113.970570782699994, 22.235790059100001 ], [ 113.963295681800005, 22.2357806694 ], [ 113.963303889, 22.230362293700001 ], [ 113.956029071700002, 22.230352581199998 ], [ 113.956037555899997, 22.224934204499998 ], [ 113.948763022199998, 22.224924169400001 ], [ 113.941488492800005, 22.224913809 ], [ 113.934213967800005, 22.224903123299999 ], [ 113.934223287699993, 22.2194847514 ], [ 113.9342326047, 22.2140663759 ], [ 113.934241918799998, 22.2086479968 ], [ 113.926968236299999, 22.208636994799999 ], [ 113.926977826699996, 22.203218615099999 ], [ 113.919704428100005, 22.203207291199998 ], [ 113.912431034299999, 22.203195642299999 ], [ 113.905157645399996, 22.203183668499999 ], [ 113.9051472174, 22.208602038799999 ], [ 113.897873554399993, 22.208589736699999 ], [ 113.8978628439, 22.214008100099999 ], [ 113.890588906800005, 22.2139954696 ], [ 113.8905779137, 22.219413825899998 ], [ 113.883303702500001, 22.219400866800001 ], [ 113.883314975, 22.213982514 ], [ 113.883326244, 22.2085641577 ], [ 113.876052596899996, 22.208550880600001 ], [ 113.876064141599997, 22.203132524200001 ], [ 113.868790779199998, 22.203118925799998 ], [ 113.868802599399999, 22.1977005695 ], [ 113.861529521899996, 22.19768665 ], [ 113.861541617499995, 22.1922682939 ], [ 113.854268824800002, 22.192254053399999 ], [ 113.846996038100002, 22.1922394881 ], [ 113.839723257599999, 22.192224598199999 ], [ 113.839710325, 22.1976429425 ], [ 113.839697388499999, 22.2030612832 ], [ 113.839684447899998, 22.2084796203 ], [ 113.839671503299996, 22.2138979538 ], [ 113.832397612500003, 22.213882722699999 ], [ 113.832384384600005, 22.2193010485 ], [ 113.839658554699994, 22.219316283800001 ], [ 113.839645602100006, 22.224734610100001 ], [ 113.832371152600004, 22.224719370700001 ], [ 113.832357916399999, 22.230137689300001 ] ], [ [ 113.883111535799998, 22.311512313 ], [ 113.890390509200003, 22.3115253317 ], [ 113.890379454699996, 22.316943623099998 ], [ 113.883100200399994, 22.316930600900001 ], [ 113.883111535799998, 22.311512313 ] ], [ [ 114.320032232399996, 22.485100402099999 ], [ 114.3127441428, 22.485106711 ], [ 114.312738854299994, 22.479688478100002 ], [ 114.3200266602, 22.479682170899999 ], [ 114.320032232399996, 22.485100402099999 ] ], [ [ 114.312738854299994, 22.479688478100002 ], [ 114.305451045799998, 22.479694456 ], [ 114.305446042400007, 22.474276217900002 ], [ 114.312733567400002, 22.474270241700001 ], [ 114.312738854299994, 22.479688478100002 ] ], [ [ 114.305446042400007, 22.474276217900002 ], [ 114.298158515099999, 22.4742818649 ], [ 114.290870985500007, 22.474287182499999 ], [ 114.290866550499999, 22.468868938 ], [ 114.298153796600005, 22.468863621699999 ], [ 114.3054410405, 22.468857976300001 ], [ 114.305446042400007, 22.474276217900002 ] ], [ [ 114.392795478799997, 22.409163925 ], [ 114.392803853700002, 22.4145821818 ], [ 114.385519476699997, 22.4145917526 ], [ 114.385511384300003, 22.409173493200001 ], [ 114.392795478799997, 22.409163925 ] ], [ [ 114.341717379100004, 22.3333678103 ], [ 114.348997549200007, 22.333360239800001 ], [ 114.349004200799996, 22.338778561200002 ], [ 114.341723749500005, 22.338786133700001 ], [ 114.341717379100004, 22.3333678103 ] ], [ [ 114.348997549200007, 22.333360239800001 ], [ 114.348990899599997, 22.3279419148 ], [ 114.356270785299998, 22.327934019400001 ], [ 114.356277716, 22.3333523423 ], [ 114.348997549200007, 22.333360239800001 ] ], [ [ 114.341723749500005, 22.338786133700001 ], [ 114.341730121799998, 22.344204453500002 ], [ 114.334449386100005, 22.344211700799999 ], [ 114.334455478899997, 22.349630018900001 ], [ 114.327174458800002, 22.3496369408 ], [ 114.327168647500002, 22.344218620900001 ], [ 114.327162837900005, 22.338800297300001 ], [ 114.334443295100002, 22.3387933791 ], [ 114.341723749500005, 22.338786133700001 ] ], [ [ 114.319860281800004, 22.3171335511 ], [ 114.319865803300004, 22.322551890900002 ], [ 114.312586184200001, 22.322558149900001 ], [ 114.312591426300003, 22.327976487699999 ], [ 114.31259667, 22.333394821900001 ], [ 114.312601915200005, 22.3388131524 ], [ 114.305321450099996, 22.338819089299999 ], [ 114.305326415600007, 22.344237417900001 ], [ 114.298045666799993, 22.344243029099999 ], [ 114.298050352399997, 22.3496613555 ], [ 114.290769319899994, 22.349666640900001 ], [ 114.290773725299999, 22.3550849652 ], [ 114.290778132200003, 22.360503285699998 ], [ 114.283496534400001, 22.3605082465 ], [ 114.283492409199994, 22.355089924600001 ], [ 114.283488285199994, 22.349671599099999 ], [ 114.276207248700004, 22.349676229899998 ], [ 114.276203407400004, 22.344257899500001 ], [ 114.2689226504, 22.344262201900001 ], [ 114.268919091699999, 22.338843866800001 ], [ 114.276199567299997, 22.338839565600001 ], [ 114.276195728299996, 22.333421228 ], [ 114.276191890600003, 22.3280028868 ], [ 114.276188054, 22.322584542 ], [ 114.283467684200005, 22.322579917300001 ], [ 114.290747312500002, 22.322574965699999 ], [ 114.290751711300004, 22.327993308 ], [ 114.2907561114, 22.333411646599998 ], [ 114.298036299900005, 22.333406365399998 ], [ 114.305316486099997, 22.3334007572 ], [ 114.305311523599997, 22.327982421400002 ], [ 114.305306562599995, 22.322564082 ], [ 114.305301603100006, 22.317145739 ], [ 114.2980222602, 22.317151342799999 ], [ 114.298017583100005, 22.3117329948 ], [ 114.3052966451, 22.311727392400002 ], [ 114.312575704799997, 22.311721463400001 ], [ 114.312580943699999, 22.317139808499999 ], [ 114.319860281800004, 22.3171335511 ] ], [ [ 114.261596098499993, 22.268409142700001 ], [ 114.261599363, 22.2738275257 ], [ 114.2616026285, 22.279245905100002 ], [ 114.261605895, 22.284664281 ], [ 114.261609162499994, 22.290082653199999 ], [ 114.254331212, 22.2900862915 ], [ 114.24705326, 22.290089603599998 ], [ 114.247050553500003, 22.284671229499999 ], [ 114.247047847900006, 22.279252851799999 ], [ 114.247045143, 22.273834470600001 ], [ 114.254322253699996, 22.2738311612 ], [ 114.254319269500002, 22.268412777199998 ], [ 114.261596098499993, 22.268409142700001 ] ], [ [ 114.028703292, 22.300873924899999 ], [ 114.028697578399999, 22.3062922736 ], [ 114.0214188076, 22.306285463599998 ], [ 114.021424801899997, 22.300867116799999 ], [ 114.028703292, 22.300873924899999 ] ], [ [ 114.014246451600002, 22.214165974 ], [ 114.021520458599994, 22.2141730777 ], [ 114.021514494, 22.219591482199998 ], [ 114.014240207599997, 22.219584376499999 ], [ 114.014246451600002, 22.214165974 ] ], [ [ 114.341857976300005, 22.45257009 ], [ 114.341851565, 22.447151842499999 ], [ 114.341845155800002, 22.4417335915 ], [ 114.349130967500002, 22.441725980699999 ], [ 114.349137659799993, 22.447144229799999 ], [ 114.349144354100005, 22.452562475200001 ], [ 114.356430728800007, 22.452554531400001 ], [ 114.356437708300007, 22.4579727711 ], [ 114.35644469, 22.4633910071 ], [ 114.356451673799995, 22.468809239599999 ], [ 114.356458659699996, 22.474227468300001 ], [ 114.349171151799993, 22.474235420500001 ], [ 114.349164449300005, 22.468817189599999 ], [ 114.349157748899998, 22.463398955100001 ], [ 114.349151050499998, 22.4579807169 ], [ 114.341864389500003, 22.457988333799999 ], [ 114.341857976300005, 22.45257009 ] ], [ [ 114.283616711799993, 22.5176380073 ], [ 114.283612550100003, 22.512219790500001 ], [ 114.290902068299999, 22.5122147929 ], [ 114.290906514, 22.517633008499999 ], [ 114.283616711799993, 22.5176380073 ] ], [ [ 114.290906514, 22.517633008499999 ], [ 114.298196314199998, 22.5176276796 ], [ 114.305486112099999, 22.517622020699999 ], [ 114.305491127699995, 22.523040229700001 ], [ 114.305496144800003, 22.528458435099999 ], [ 114.298205778300002, 22.528464097 ], [ 114.298201045499994, 22.523045890100001 ], [ 114.290910961199998, 22.523051220399999 ], [ 114.290906514, 22.517633008499999 ] ], [ [ 114.283517179300006, 22.3875998018 ], [ 114.2835130478, 22.382181498 ], [ 114.290795772899997, 22.382176532 ], [ 114.290800186499993, 22.3875948345 ], [ 114.283517179300006, 22.3875998018 ] ], [ [ 114.290699013899996, 22.262972962900001 ], [ 114.283422472, 22.2629779 ], [ 114.283418369299994, 22.2575595132 ], [ 114.290694631099996, 22.257554577299999 ], [ 114.290699013899996, 22.262972962900001 ] ], [ [ 114.217985999899994, 22.441812669400001 ], [ 114.210700154, 22.441814361900001 ], [ 114.210701469300005, 22.447232634199999 ], [ 114.203415339800003, 22.447233998200002 ], [ 114.196129209800006, 22.447235033399998 ], [ 114.188843079500003, 22.447235739700002 ], [ 114.188842613299997, 22.4418174666 ], [ 114.196128460599994, 22.4418167605 ], [ 114.203414307499997, 22.441815725600001 ], [ 114.203413275599999, 22.436397449299999 ], [ 114.210698839100004, 22.4363960859 ], [ 114.210697524599993, 22.430977806400001 ], [ 114.217982804800002, 22.430976114700002 ], [ 114.217981207899996, 22.425557832 ], [ 114.225266204600004, 22.425555812300001 ], [ 114.225268084199996, 22.430974094500002 ], [ 114.232553362700003, 22.430971745600001 ], [ 114.232555525699993, 22.436390023600001 ], [ 114.232557689299995, 22.441808298 ], [ 114.239843532600005, 22.441805619099998 ], [ 114.247129374699995, 22.4418026114 ], [ 114.247126645199998, 22.436384338500002 ], [ 114.254412203100003, 22.436381003 ], [ 114.261697759599997, 22.436377338700002 ], [ 114.268983314500005, 22.4363733456 ], [ 114.276268867799999, 22.436369023899999 ], [ 114.276272728899997, 22.441787292800001 ], [ 114.276276591200002, 22.447205558 ], [ 114.2762804547, 22.452623819599999 ], [ 114.283566855100005, 22.452619165600002 ], [ 114.283571002900004, 22.458037422299999 ], [ 114.283575151899996, 22.463455675500001 ], [ 114.283579302299998, 22.468873925 ], [ 114.276292052100004, 22.4688785827 ], [ 114.2762881851, 22.463460332 ], [ 114.2690012164, 22.4634646594 ], [ 114.2689976339, 22.458046403899999 ], [ 114.261710946799994, 22.4580504011 ], [ 114.261707648500007, 22.4526321409 ], [ 114.254421243, 22.452635808099998 ], [ 114.254418228800006, 22.447217543400001 ], [ 114.247132105, 22.447220880700002 ], [ 114.239845979899997, 22.4472238892 ], [ 114.2398484279, 22.4526421556 ], [ 114.232562018500005, 22.452644835899999 ], [ 114.232559853599994, 22.4472265687 ], [ 114.225273726300003, 22.447228919400001 ], [ 114.217987598199997, 22.447230941299999 ], [ 114.217985999899994, 22.441812669400001 ] ], [ [ 114.283546134900007, 22.4255278274 ], [ 114.283550276400007, 22.4309461022 ], [ 114.276265007800006, 22.430950751400001 ], [ 114.276261149, 22.425532475299999 ], [ 114.283546134900007, 22.4255278274 ] ], [ [ 114.283504788599998, 22.371344879500001 ], [ 114.283508917600003, 22.3767631905 ], [ 114.276226472499999, 22.3767678275 ], [ 114.276222625399996, 22.371349515199999 ], [ 114.276218779499999, 22.3659311993 ], [ 114.283500660900003, 22.365926564799999 ], [ 114.283504788599998, 22.371344879500001 ] ], [ [ 114.210722566599998, 22.533924498 ], [ 114.210721245100004, 22.528506283799999 ], [ 114.218011629499998, 22.528504584299998 ], [ 114.218013235399994, 22.533922798100001 ], [ 114.210722566599998, 22.533924498 ] ], [ [ 114.218013235399994, 22.533922798100001 ], [ 114.225303903400004, 22.5339207679 ], [ 114.232594570499998, 22.5339184075 ], [ 114.232596745799995, 22.539336616500002 ], [ 114.225305794199997, 22.5393389776 ], [ 114.218014841799999, 22.539341008299999 ], [ 114.218013235399994, 22.533922798100001 ] ], [ [ 114.225221262700003, 22.295515954100001 ], [ 114.225219397100005, 22.290097581600001 ], [ 114.232497352500005, 22.2900952486 ], [ 114.232499498600006, 22.2955136205 ], [ 114.225221262700003, 22.295515954100001 ] ], [ [ 114.196108311499998, 22.295522024299999 ], [ 114.203386550100007, 22.295520996400001 ], [ 114.210664788299994, 22.2955196421 ], [ 114.217943025899999, 22.2955179613 ], [ 114.217944611299998, 22.300936330799999 ], [ 114.210666093100002, 22.300938012 ], [ 114.210667398300004, 22.3063563782 ], [ 114.203388598700002, 22.3063577333 ], [ 114.196109798699993, 22.3063587617 ], [ 114.196109055, 22.300940394800001 ], [ 114.196108311499998, 22.295522024299999 ] ], [ [ 114.152438877400002, 22.2955213368 ], [ 114.152439817599998, 22.290102963 ], [ 114.159717775700003, 22.290103893400001 ], [ 114.159717116, 22.295522267399999 ], [ 114.152438877400002, 22.2955213368 ] ], [ [ 114.014083476400003, 22.355043268599999 ], [ 114.014077181900007, 22.360461577300001 ], [ 114.006795604800004, 22.360454094 ], [ 113.9995140308, 22.3604462831 ], [ 113.992232460300002, 22.3604381448 ], [ 113.984950893100006, 22.360429679 ], [ 113.984943469800001, 22.365847975499999 ], [ 113.984936044299999, 22.371266268500001 ], [ 113.977653917200001, 22.371257470500002 ], [ 113.977661624600003, 22.3658391799 ], [ 113.970379783, 22.365830056699998 ], [ 113.963097945399994, 22.365820606 ], [ 113.955816111700003, 22.365810827699999 ], [ 113.955824661700007, 22.360392541100001 ], [ 113.955833209100007, 22.354974251 ], [ 113.963114479500007, 22.354984024 ], [ 113.963122742799996, 22.349565727600002 ], [ 113.963131003499996, 22.344147427599999 ], [ 113.963139261600006, 22.338729124 ], [ 113.970419691700002, 22.338738562 ], [ 113.970427666, 22.3333202522 ], [ 113.970435637899996, 22.3279019388 ], [ 113.963155770200004, 22.3278925059 ], [ 113.963164020700006, 22.322474191400001 ], [ 113.963172268700006, 22.317055873299999 ], [ 113.963180514100003, 22.311637551600001 ], [ 113.970459538699998, 22.311646976900001 ], [ 113.970467500699996, 22.306228649099999 ], [ 113.977746248399995, 22.306237745200001 ], [ 113.977738567200007, 22.3116560755 ], [ 113.985017599399995, 22.311664847399999 ], [ 113.985010196700003, 22.317083176499999 ], [ 113.992289513399996, 22.317091624 ], [ 113.992282389500005, 22.322509951699999 ], [ 113.999561990700002, 22.3225180747 ], [ 113.999555145599999, 22.327936401 ], [ 114.006835031199998, 22.327944199200001 ], [ 114.006828465200002, 22.333362524 ], [ 114.014108635100001, 22.3333699973 ], [ 114.0141023483, 22.338788320500001 ], [ 114.021382802600002, 22.338795468699999 ], [ 114.028663259699997, 22.3388022898 ], [ 114.035943719599999, 22.338808783699999 ], [ 114.035938274900005, 22.344227108799998 ], [ 114.043219018800002, 22.344233277299999 ], [ 114.043213853899999, 22.3496516005 ], [ 114.050494881800006, 22.349657443400002 ], [ 114.050489996799996, 22.355075764599999 ], [ 114.043208687399996, 22.3550699201 ], [ 114.0359273806, 22.355063748300001 ], [ 114.028646076399994, 22.3550572491 ], [ 114.021364774899993, 22.3550504225 ], [ 114.014083476400003, 22.355043268599999 ] ], [ [ 113.948640083100003, 22.3007810776 ], [ 113.948631281399997, 22.306199401099999 ], [ 113.948622476899999, 22.311617721 ], [ 113.941343464599996, 22.311607315700002 ], [ 113.941352549900003, 22.3061889986 ], [ 113.941361632400003, 22.300770677900001 ], [ 113.948640083100003, 22.3007810776 ] ] ], [ [ [ 113.825069673900003, 22.2355404312 ], [ 113.832344676199995, 22.235556004300001 ], [ 113.832357916399999, 22.230137689300001 ], [ 113.825083193699996, 22.230122120400001 ], [ 113.825069673900003, 22.2355404312 ] ] ], [ [ [ 114.065104396899997, 22.290066344 ], [ 114.065100089699996, 22.2954847078 ], [ 114.0723783137, 22.295489555500001 ], [ 114.072382340299995, 22.290071190399999 ], [ 114.065104396899997, 22.290066344 ] ] ], [ [ [ 114.188823606599996, 22.219665158200002 ], [ 114.188823145800001, 22.2142467336 ], [ 114.188822685, 22.208828305299999 ], [ 114.181548924699996, 22.208828679 ], [ 114.181549106199995, 22.214247107399999 ], [ 114.181549287699994, 22.219665532099999 ], [ 114.188823606599996, 22.219665158200002 ] ] ], [ [ [ 114.327378974599995, 22.5392758582 ], [ 114.3273848499, 22.5446940476 ], [ 114.334676059499998, 22.544687059499999 ], [ 114.334669899600001, 22.539268871800001 ], [ 114.327378974599995, 22.5392758582 ] ] ], [ [ [ 113.948357073699995, 22.474165637700001 ], [ 113.948365960100006, 22.468747426299998 ], [ 113.941078766199993, 22.468736939500001 ], [ 113.941069596399998, 22.474155148 ], [ 113.948357073699995, 22.474165637700001 ] ] ], [ [ [ 114.298045666799993, 22.344243029099999 ], [ 114.2980409826, 22.338824699100002 ], [ 114.290760512899993, 22.338829981699998 ], [ 114.290764915699995, 22.3442483131 ], [ 114.298045666799993, 22.344243029099999 ] ] ], [ [ [ 114.072382340299995, 22.290071190399999 ], [ 114.079660285700001, 22.290075710499998 ], [ 114.086938232899996, 22.290079904300001 ], [ 114.086941697200004, 22.284661533200001 ], [ 114.086945160499994, 22.279243158500002 ], [ 114.079667774200004, 22.279238967 ], [ 114.072390389700004, 22.279234449400001 ], [ 114.072386365599996, 22.2846528217 ], [ 114.072382340299995, 22.290071190399999 ] ] ], [ [ [ 114.392862549699998, 22.452509878200001 ], [ 114.400148902400005, 22.452499960600001 ], [ 114.4001402265, 22.447081731800001 ], [ 114.3928541569, 22.447091646699999 ], [ 114.392862549699998, 22.452509878200001 ] ] ], [ [ [ 114.363471481700003, 22.268324031100001 ], [ 114.370748273399997, 22.2683155068 ], [ 114.370740807700003, 22.262897145099998 ], [ 114.363464296199993, 22.2629056671 ], [ 114.363471481700003, 22.268324031100001 ] ] ], [ [ [ 114.341647433600002, 22.273766014700001 ], [ 114.3489245154, 22.2737584664 ], [ 114.3562015941, 22.273750592 ], [ 114.356194686600006, 22.268332229399999 ], [ 114.356187781200006, 22.262913863200001 ], [ 114.356180877900002, 22.2574954934 ], [ 114.356173976700006, 22.25207712 ], [ 114.348898018499995, 22.252084986 ], [ 114.341622057, 22.2520925263 ], [ 114.341628398200001, 22.2575109038 ], [ 114.3416347414, 22.2629292777 ], [ 114.341641086500005, 22.268347648 ], [ 114.341647433600002, 22.273766014700001 ] ] ], [ [ [ 114.3562015941, 22.273750592 ], [ 114.356208503700003, 22.279168950900001 ], [ 114.363485859299999, 22.279160748300001 ], [ 114.363478669399996, 22.273742391500001 ], [ 114.3562015941, 22.273750592 ] ] ], [ [ [ 114.239724514299994, 22.176305961899999 ], [ 114.239726925699998, 22.181724408600001 ], [ 114.2397293378, 22.187142851800001 ], [ 114.239731750700003, 22.192561291400001 ], [ 114.247004668200006, 22.192558319900002 ], [ 114.254277584500002, 22.192555023499999 ], [ 114.261550499400002, 22.192551402500001 ], [ 114.261547249700001, 22.187132965499998 ], [ 114.261544001, 22.181714524899999 ], [ 114.268816356599999, 22.181710581200001 ], [ 114.276088710400003, 22.181706312799999 ], [ 114.276084905199994, 22.176287870900001 ], [ 114.276081101100004, 22.170869425300001 ], [ 114.276077298199993, 22.165450976100001 ], [ 114.276073496500004, 22.160032523400002 ], [ 114.268802257199994, 22.160036787199999 ], [ 114.261531016199996, 22.160040726799998 ], [ 114.261527772500003, 22.154622268200001 ], [ 114.254256808400001, 22.154625882600001 ], [ 114.246985842900003, 22.1546291728 ], [ 114.246988529800007, 22.160047633200001 ], [ 114.246991217499996, 22.165466089900001 ], [ 114.246993906, 22.170884543100001 ], [ 114.246996595300004, 22.176302992699998 ], [ 114.239724514299994, 22.176305961899999 ] ] ], [ [ [ 114.239724514299994, 22.176305961899999 ], [ 114.239722103700004, 22.170887511499998 ], [ 114.232450300300002, 22.1708901555 ], [ 114.232452432200006, 22.176308606599999 ], [ 114.239724514299994, 22.176305961899999 ] ] ], [ [ [ 114.276088710400003, 22.181706312799999 ], [ 114.276092516800006, 22.187124751199999 ], [ 114.276096324299999, 22.192543186 ], [ 114.283369234199995, 22.192538590600002 ], [ 114.290642142099998, 22.192533670500001 ], [ 114.297915047900005, 22.192528425599999 ], [ 114.305187951400001, 22.192522856 ], [ 114.312460852699999, 22.192516961599999 ], [ 114.312455650399997, 22.1870985338 ], [ 114.312450449799996, 22.181680102400001 ], [ 114.305178106300005, 22.181685993599999 ], [ 114.305173186100006, 22.176267557100001 ], [ 114.297901119, 22.1762731223 ], [ 114.297905760600003, 22.181691560299999 ], [ 114.297910403499998, 22.1871099948 ], [ 114.290637776599993, 22.187115238299999 ], [ 114.2906334125, 22.181696802400001 ], [ 114.290629049800003, 22.176278363 ], [ 114.283356978499995, 22.1762832792 ], [ 114.283361062500006, 22.181701719900001 ], [ 114.276088710400003, 22.181706312799999 ] ] ], [ [ [ 114.217985999899994, 22.441812669400001 ], [ 114.225271845099996, 22.441810648099999 ], [ 114.225269964299997, 22.436392373099999 ], [ 114.217984402100001, 22.436394393899999 ], [ 114.217985999899994, 22.441812669400001 ] ] ], [ [ [ 114.254418228800006, 22.447217543400001 ], [ 114.261704351199995, 22.447213877100001 ], [ 114.261701054900001, 22.441795609700002 ], [ 114.254415215500003, 22.441799275 ], [ 114.254418228800006, 22.447217543400001 ] ] ], [ [ [ 114.108821778299998, 22.1871408065 ], [ 114.108819170199993, 22.192559245199998 ], [ 114.116092087699997, 22.1925621193 ], [ 114.116089757799998, 22.197980555299999 ], [ 114.116087427099998, 22.2033989876 ], [ 114.116085095800003, 22.208817416399999 ], [ 114.108811340900004, 22.208814539799999 ], [ 114.101537587400003, 22.208811338299999 ], [ 114.094263835299998, 22.208807811700002 ], [ 114.094260665299998, 22.214226234200002 ], [ 114.094257494399997, 22.219644653100001 ], [ 114.101531805199997, 22.2196481816 ], [ 114.101528912700005, 22.2250665979 ], [ 114.101526019299996, 22.230485010599999 ], [ 114.101523125, 22.235903419700001 ], [ 114.1087982759, 22.2359066257 ], [ 114.108795660400006, 22.241325032100001 ], [ 114.116071092200002, 22.241327913399999 ], [ 114.123346525200006, 22.241330469099999 ], [ 114.123348581299993, 22.235912061200001 ], [ 114.123350636599994, 22.230493649700001 ], [ 114.130625511299996, 22.230495878700001 ], [ 114.137900386799998, 22.230497782299999 ], [ 114.137901882500003, 22.225079366 ], [ 114.137903377699999, 22.219660946200001 ], [ 114.1379048724, 22.214242522799999 ], [ 114.145178910300004, 22.2142440997 ], [ 114.152452948800004, 22.214245351500001 ], [ 114.159726987799999, 22.214246278099999 ], [ 114.1670010271, 22.214246879600001 ], [ 114.167001404199993, 22.208828451399999 ], [ 114.1670017812, 22.2034100196 ], [ 114.159728300300003, 22.2034094184 ], [ 114.152454819799999, 22.203408492299999 ], [ 114.152455754900004, 22.1979900573 ], [ 114.145182554, 22.197988806600002 ], [ 114.145183767800006, 22.192570368399998 ], [ 114.152456689600001, 22.192571618700001 ], [ 114.152457624099995, 22.187153176500001 ], [ 114.152458558199996, 22.181734730799999 ], [ 114.152459492099993, 22.176316281399998 ], [ 114.145187406800005, 22.1763150321 ], [ 114.1379153221, 22.176313458399999 ], [ 114.130643238100006, 22.1763115601 ], [ 114.123371155, 22.176309337300001 ], [ 114.116099072899999, 22.17630679 ], [ 114.108826992, 22.176303918199999 ], [ 114.1088243855, 22.181722364100001 ], [ 114.108821778299998, 22.1871408065 ] ] ], [ [ [ 114.065078533800005, 22.322576472600002 ], [ 114.072358162, 22.3225813269 ], [ 114.072362194799993, 22.317162979900001 ], [ 114.065082847699998, 22.317158126799999 ], [ 114.065078533800005, 22.322576472600002 ] ] ], [ [ [ 114.006630538500005, 22.495910586499999 ], [ 114.006623909400005, 22.501328799100001 ], [ 114.013912838699994, 22.501336335 ], [ 114.013919184100004, 22.495918120500001 ], [ 114.006630538500005, 22.495910586499999 ] ] ], [ [ [ 113.999732428900003, 22.1870587453 ], [ 113.992459826900003, 22.187050677199998 ], [ 113.985187228399994, 22.187042284499999 ], [ 113.977914633500006, 22.187033567 ], [ 113.977907004499997, 22.192451976499999 ], [ 113.977899373200003, 22.1978703825 ], [ 113.977891739499995, 22.203288784800002 ], [ 113.9851651715, 22.2032975093 ], [ 113.992438607, 22.203305908899999 ], [ 113.992445682500005, 22.197887502 ], [ 113.9997188424, 22.1978955744 ], [ 113.999725636700006, 22.192477161700001 ], [ 113.999732428900003, 22.1870587453 ] ] ], [ [ [ 113.992031659800006, 22.512149143399999 ], [ 113.999321150699998, 22.5121573433 ], [ 113.999328068, 22.506739140099999 ], [ 113.992038861200001, 22.506730942400001 ], [ 113.992031659800006, 22.512149143399999 ] ] ], [ [ [ 113.977715509399999, 22.3279110448 ], [ 113.984995384599998, 22.327919823799999 ], [ 113.985002791799999, 22.3225015019 ], [ 113.977723197700001, 22.322492725299998 ], [ 113.977715509399999, 22.3279110448 ] ] ], [ [ [ 113.984980563299999, 22.338756456599999 ], [ 113.984987975099997, 22.333338142 ], [ 113.977707818699997, 22.333329360600001 ], [ 113.977700125599995, 22.338747672899999 ], [ 113.977692430199994, 22.344165981500002 ], [ 113.984973149200002, 22.344174767599998 ], [ 113.984980563299999, 22.338756456599999 ] ] ], [ [ [ 113.963426691600006, 22.149086226 ], [ 113.956156058299996, 22.149076552899999 ], [ 113.956147610900004, 22.15449498 ], [ 113.956139160899994, 22.159913403400001 ], [ 113.963410350900006, 22.159923081700001 ], [ 113.970681545, 22.1599324357 ], [ 113.970689438199997, 22.154514007100001 ], [ 113.970697328900002, 22.149095574899999 ], [ 113.963426691600006, 22.149086226 ] ] ], [ [ [ 113.941497533299994, 22.219495434199999 ], [ 113.948771783200002, 22.2195057918 ], [ 113.9487805415, 22.214087410600001 ], [ 113.941506570900003, 22.214077055800001 ], [ 113.941497533299994, 22.219495434199999 ] ] ], [ [ [ 113.905220145300007, 22.1706733716 ], [ 113.897948434699998, 22.1706610928 ], [ 113.890676729299997, 22.1706484897 ], [ 113.890665763399994, 22.1760668748 ], [ 113.897937747499995, 22.1760794813 ], [ 113.905209736700002, 22.176091763399999 ], [ 113.905199324899996, 22.181510151600001 ], [ 113.905188909900005, 22.1869285362 ], [ 113.905178491599997, 22.192346917199998 ], [ 113.912451322400003, 22.192358884499999 ], [ 113.912461461700005, 22.1869405003 ], [ 113.919734018499994, 22.186952139700001 ], [ 113.919743875899997, 22.1815337486 ], [ 113.927016158599997, 22.1815450603 ], [ 113.927025734200001, 22.176126662600002 ], [ 113.927035306700006, 22.170708261400002 ], [ 113.919763581400005, 22.1706969558 ], [ 113.919773429599999, 22.165278554 ], [ 113.919783274699995, 22.1598601486 ], [ 113.927054443, 22.159871448 ], [ 113.927064006600006, 22.154453036 ], [ 113.927073567299999, 22.1490346203 ], [ 113.919802955899996, 22.1490233271 ], [ 113.919793116799994, 22.154441739599999 ], [ 113.912522231799997, 22.154430119200001 ], [ 113.905251351700002, 22.154418174500002 ], [ 113.897980476599997, 22.154405905800001 ], [ 113.8979697993, 22.159824305099999 ], [ 113.897959118599999, 22.165242700699999 ], [ 113.905230550599995, 22.165254976100002 ], [ 113.905220145300007, 22.1706733716 ] ] ], [ [ [ 113.897604796400003, 22.344047738499999 ], [ 113.897615586599997, 22.338629461699998 ], [ 113.890335202499998, 22.338616752499998 ], [ 113.883054823799995, 22.3386037163 ], [ 113.883043470900006, 22.3440219861 ], [ 113.883032114399995, 22.349440252299999 ], [ 113.883020754499995, 22.354858514899998 ], [ 113.890301977600004, 22.354871561700001 ], [ 113.890313056, 22.3494532956 ], [ 113.897594002800005, 22.349466011600001 ], [ 113.897604796400003, 22.344047738499999 ] ] ], [ [ [ 113.890246534200003, 22.381962837900002 ], [ 113.890257629700002, 22.3765445899 ], [ 113.890268721799998, 22.371126338300002 ], [ 113.890279810500004, 22.365708083099999 ], [ 113.882998024100004, 22.365695029200001 ], [ 113.875716243300005, 22.365681647900001 ], [ 113.875704591100003, 22.371099896 ], [ 113.875692935299995, 22.3765181405 ], [ 113.875681275900007, 22.381936381399999 ], [ 113.875669612899998, 22.387354618700002 ], [ 113.882952521299998, 22.387368014500002 ], [ 113.882963902300006, 22.381949773599999 ], [ 113.890246534200003, 22.381962837900002 ] ] ], [ [ [ 113.868458325, 22.354831439200002 ], [ 113.868446398399996, 22.360249690900002 ], [ 113.875727891899999, 22.360263396099999 ], [ 113.875739536899999, 22.354845140799998 ], [ 113.868458325, 22.354831439200002 ] ] ] ] } }
]
}
